(FRESH BADGE D -- zero at CENTER of the Tigers badge)
(zero at the marked point; Z0 = SURFACE there. 1/16in tapered ball nose)
(bold serif, 2.0mm deep pocket + outline. cut F1200, ramp F200, safe Z 2.0)
G21
G90
G17
G94
(HOVER CHECK -- spindle OFF; pauses over the zero point)
G0 Z6.000
G0 X0.000 Y0.000
M0
M3 S12000
G4 P4.0
G0 Z2.000
(--- glyph 0 ---)
G0 Z2.000
G0 Z2.000
G0 X-21.180 Y19.980
G1 X-20.680 Y19.980 Z1.333 F200
G1 X-20.180 Y19.980 Z0.667 F200
G1 X-19.680 Y19.980 Z0.000 F200
G1 X-19.180 Y19.980 Z-0.667 F200
G1 X-18.680 Y19.980 Z-1.333 F200
G1 X-18.180 Y19.980 Z-2.000 F200
G1 X1.620 Y19.980 Z-2.000 F1200
G0 Z2.000
G0 X6.180 Y19.380
G1 X5.680 Y19.380 Z1.333 F200
G1 X5.180 Y19.380 Z0.667 F200
G1 X4.680 Y19.380 Z0.000 F200
G1 X4.180 Y19.380 Z-0.667 F200
G1 X3.680 Y19.380 Z-1.333 F200
G1 X3.180 Y19.380 Z-2.000 F200
G1 X-21.180 Y19.380 Z-2.000 F1200
G0 Z2.000
G0 X-21.180 Y18.780
G1 X-20.680 Y18.780 Z1.333 F200
G1 X-20.180 Y18.780 Z0.667 F200
G1 X-19.680 Y18.780 Z0.000 F200
G1 X-19.180 Y18.780 Z-0.667 F200
G1 X-18.680 Y18.780 Z-1.333 F200
G1 X-18.180 Y18.780 Z-2.000 F200
G1 X8.580 Y18.780 Z-2.000 F1200
G0 Z2.000
G0 X10.260 Y18.180
G1 X9.760 Y18.180 Z1.333 F200
G1 X9.260 Y18.180 Z0.667 F200
G1 X8.760 Y18.180 Z0.000 F200
G1 X8.260 Y18.180 Z-0.667 F200
G1 X7.760 Y18.180 Z-1.333 F200
G1 X7.260 Y18.180 Z-2.000 F200
G1 X-21.180 Y18.180 Z-2.000 F1200
G0 Z2.000
G0 X-21.180 Y17.580
G1 X-20.680 Y17.580 Z1.333 F200
G1 X-20.180 Y17.580 Z0.667 F200
G1 X-19.680 Y17.580 Z0.000 F200
G1 X-19.180 Y17.580 Z-0.667 F200
G1 X-18.680 Y17.580 Z-1.333 F200
G1 X-18.180 Y17.580 Z-2.000 F200
G1 X11.580 Y17.580 Z-2.000 F1200
G0 Z2.000
G0 X12.780 Y16.980
G1 X12.280 Y16.980 Z1.333 F200
G1 X11.780 Y16.980 Z0.667 F200
G1 X11.280 Y16.980 Z0.000 F200
G1 X10.780 Y16.980 Z-0.667 F200
G1 X10.280 Y16.980 Z-1.333 F200
G1 X9.780 Y16.980 Z-2.000 F200
G1 X-21.180 Y16.980 Z-2.000 F1200
G0 Z2.000
G0 X-16.020 Y16.380
G1 X-15.520 Y16.380 Z1.333 F200
G1 X-15.020 Y16.380 Z0.667 F200
G1 X-14.520 Y16.380 Z0.000 F200
G1 X-14.020 Y16.380 Z-0.667 F200
G1 X-13.520 Y16.380 Z-1.333 F200
G1 X-13.020 Y16.380 Z-2.000 F200
G1 X-5.940 Y16.380 Z-2.000 F1200
G0 Z2.000
G0 X1.380 Y16.380
G1 X1.880 Y16.380 Z1.333 F200
G1 X2.380 Y16.380 Z0.667 F200
G1 X2.880 Y16.380 Z0.000 F200
G1 X3.380 Y16.380 Z-0.667 F200
G1 X3.880 Y16.380 Z-1.333 F200
G1 X4.380 Y16.380 Z-2.000 F200
G1 X13.620 Y16.380 Z-2.000 F1200
G0 Z2.000
G0 X14.580 Y15.780
G1 X14.080 Y15.780 Z1.333 F200
G1 X13.580 Y15.780 Z0.667 F200
G1 X13.080 Y15.780 Z0.000 F200
G1 X12.580 Y15.780 Z-0.667 F200
G1 X12.080 Y15.780 Z-1.333 F200
G1 X11.580 Y15.780 Z-2.000 F200
G1 X3.300 Y15.780 Z-2.000 F1200
G0 Z2.000
G0 X-5.940 Y15.780
G1 X-6.440 Y15.780 Z1.333 F200
G1 X-6.940 Y15.780 Z0.667 F200
G1 X-7.440 Y15.780 Z0.000 F200
G1 X-7.940 Y15.780 Z-0.667 F200
G1 X-8.440 Y15.780 Z-1.333 F200
G1 X-8.940 Y15.780 Z-2.000 F200
G1 X-16.020 Y15.780 Z-2.000 F1200
G0 Z2.000
G0 X-16.020 Y15.180
G1 X-15.520 Y15.180 Z1.333 F200
G1 X-15.020 Y15.180 Z0.667 F200
G1 X-14.520 Y15.180 Z0.000 F200
G1 X-14.020 Y15.180 Z-0.667 F200
G1 X-13.520 Y15.180 Z-1.333 F200
G1 X-13.020 Y15.180 Z-2.000 F200
G1 X-5.940 Y15.180 Z-2.000 F1200
G0 Z2.000
G0 X4.500 Y15.180
G1 X5.000 Y15.180 Z1.333 F200
G1 X5.500 Y15.180 Z0.667 F200
G1 X6.000 Y15.180 Z0.000 F200
G1 X6.500 Y15.180 Z-0.667 F200
G1 X7.000 Y15.180 Z-1.333 F200
G1 X7.500 Y15.180 Z-2.000 F200
G1 X15.300 Y15.180 Z-2.000 F1200
G0 Z2.000
G0 X15.900 Y14.580
G1 X15.400 Y14.580 Z1.333 F200
G1 X14.900 Y14.580 Z0.667 F200
G1 X14.400 Y14.580 Z0.000 F200
G1 X13.900 Y14.580 Z-0.667 F200
G1 X13.400 Y14.580 Z-1.333 F200
G1 X12.900 Y14.580 Z-2.000 F200
G1 X5.340 Y14.580 Z-2.000 F1200
G0 Z2.000
G0 X-5.940 Y14.580
G1 X-6.440 Y14.580 Z1.333 F200
G1 X-6.940 Y14.580 Z0.667 F200
G1 X-7.440 Y14.580 Z0.000 F200
G1 X-7.940 Y14.580 Z-0.667 F200
G1 X-8.440 Y14.580 Z-1.333 F200
G1 X-8.940 Y14.580 Z-2.000 F200
G1 X-16.020 Y14.580 Z-2.000 F1200
G0 Z2.000
G0 X-16.020 Y13.980
G1 X-15.520 Y13.980 Z1.333 F200
G1 X-15.020 Y13.980 Z0.667 F200
G1 X-14.520 Y13.980 Z0.000 F200
G1 X-14.020 Y13.980 Z-0.667 F200
G1 X-13.520 Y13.980 Z-1.333 F200
G1 X-13.020 Y13.980 Z-2.000 F200
G1 X-5.940 Y13.980 Z-2.000 F1200
G0 Z2.000
G0 X6.060 Y13.980
G1 X6.560 Y13.980 Z1.333 F200
G1 X7.060 Y13.980 Z0.667 F200
G1 X7.560 Y13.980 Z0.000 F200
G1 X8.060 Y13.980 Z-0.667 F200
G1 X8.560 Y13.980 Z-1.333 F200
G1 X9.060 Y13.980 Z-2.000 F200
G1 X16.500 Y13.980 Z-2.000 F1200
G0 Z2.000
G0 X17.100 Y13.380
G1 X16.600 Y13.380 Z1.333 F200
G1 X16.100 Y13.380 Z0.667 F200
G1 X15.600 Y13.380 Z0.000 F200
G1 X15.100 Y13.380 Z-0.667 F200
G1 X14.600 Y13.380 Z-1.333 F200
G1 X14.100 Y13.380 Z-2.000 F200
G1 X6.540 Y13.380 Z-2.000 F1200
G0 Z2.000
G0 X-5.940 Y13.380
G1 X-6.440 Y13.380 Z1.333 F200
G1 X-6.940 Y13.380 Z0.667 F200
G1 X-7.440 Y13.380 Z0.000 F200
G1 X-7.940 Y13.380 Z-0.667 F200
G1 X-8.440 Y13.380 Z-1.333 F200
G1 X-8.940 Y13.380 Z-2.000 F200
G1 X-16.020 Y13.380 Z-2.000 F1200
G0 Z2.000
G0 X-16.020 Y12.780
G1 X-15.520 Y12.780 Z1.333 F200
G1 X-15.020 Y12.780 Z0.667 F200
G1 X-14.520 Y12.780 Z0.000 F200
G1 X-14.020 Y12.780 Z-0.667 F200
G1 X-13.520 Y12.780 Z-1.333 F200
G1 X-13.020 Y12.780 Z-2.000 F200
G1 X-5.940 Y12.780 Z-2.000 F1200
G0 Z2.000
G0 X7.020 Y12.780
G1 X7.520 Y12.780 Z1.333 F200
G1 X8.020 Y12.780 Z0.667 F200
G1 X8.520 Y12.780 Z0.000 F200
G1 X9.020 Y12.780 Z-0.667 F200
G1 X9.520 Y12.780 Z-1.333 F200
G1 X10.020 Y12.780 Z-2.000 F200
G1 X17.580 Y12.780 Z-2.000 F1200
G0 Z2.000
G0 X17.940 Y12.180
G1 X17.440 Y12.180 Z1.333 F200
G1 X16.940 Y12.180 Z0.667 F200
G1 X16.440 Y12.180 Z0.000 F200
G1 X15.940 Y12.180 Z-0.667 F200
G1 X15.440 Y12.180 Z-1.333 F200
G1 X14.940 Y12.180 Z-2.000 F200
G1 X7.500 Y12.180 Z-2.000 F1200
G0 Z2.000
G0 X-5.940 Y12.180
G1 X-6.440 Y12.180 Z1.333 F200
G1 X-6.940 Y12.180 Z0.667 F200
G1 X-7.440 Y12.180 Z0.000 F200
G1 X-7.940 Y12.180 Z-0.667 F200
G1 X-8.440 Y12.180 Z-1.333 F200
G1 X-8.940 Y12.180 Z-2.000 F200
G1 X-16.020 Y12.180 Z-2.000 F1200
G0 Z2.000
G0 X-16.020 Y11.580
G1 X-15.520 Y11.580 Z1.333 F200
G1 X-15.020 Y11.580 Z0.667 F200
G1 X-14.520 Y11.580 Z0.000 F200
G1 X-14.020 Y11.580 Z-0.667 F200
G1 X-13.520 Y11.580 Z-1.333 F200
G1 X-13.020 Y11.580 Z-2.000 F200
G1 X-5.940 Y11.580 Z-2.000 F1200
G0 Z2.000
G0 X7.860 Y11.580
G1 X8.360 Y11.580 Z1.333 F200
G1 X8.860 Y11.580 Z0.667 F200
G1 X9.360 Y11.580 Z0.000 F200
G1 X9.860 Y11.580 Z-0.667 F200
G1 X10.360 Y11.580 Z-1.333 F200
G1 X10.860 Y11.580 Z-2.000 F200
G1 X18.420 Y11.580 Z-2.000 F1200
G0 Z2.000
G0 X18.780 Y10.980
G1 X18.280 Y10.980 Z1.333 F200
G1 X17.780 Y10.980 Z0.667 F200
G1 X17.280 Y10.980 Z0.000 F200
G1 X16.780 Y10.980 Z-0.667 F200
G1 X16.280 Y10.980 Z-1.333 F200
G1 X15.780 Y10.980 Z-2.000 F200
G1 X8.100 Y10.980 Z-2.000 F1200
G0 Z2.000
G0 X-5.940 Y10.980
G1 X-6.440 Y10.980 Z1.333 F200
G1 X-6.940 Y10.980 Z0.667 F200
G1 X-7.440 Y10.980 Z0.000 F200
G1 X-7.940 Y10.980 Z-0.667 F200
G1 X-8.440 Y10.980 Z-1.333 F200
G1 X-8.940 Y10.980 Z-2.000 F200
G1 X-16.020 Y10.980 Z-2.000 F1200
G0 Z2.000
G0 X-16.020 Y10.380
G1 X-15.520 Y10.380 Z1.333 F200
G1 X-15.020 Y10.380 Z0.667 F200
G1 X-14.520 Y10.380 Z0.000 F200
G1 X-14.020 Y10.380 Z-0.667 F200
G1 X-13.520 Y10.380 Z-1.333 F200
G1 X-13.020 Y10.380 Z-2.000 F200
G1 X-5.940 Y10.380 Z-2.000 F1200
G0 Z2.000
G0 X8.340 Y10.380
G1 X8.840 Y10.380 Z1.333 F200
G1 X9.340 Y10.380 Z0.667 F200
G1 X9.840 Y10.380 Z0.000 F200
G1 X10.340 Y10.380 Z-0.667 F200
G1 X10.840 Y10.380 Z-1.333 F200
G1 X11.340 Y10.380 Z-2.000 F200
G1 X19.020 Y10.380 Z-2.000 F1200
G0 Z2.000
G0 X19.380 Y9.780
G1 X18.880 Y9.780 Z1.333 F200
G1 X18.380 Y9.780 Z0.667 F200
G1 X17.880 Y9.780 Z0.000 F200
G1 X17.380 Y9.780 Z-0.667 F200
G1 X16.880 Y9.780 Z-1.333 F200
G1 X16.380 Y9.780 Z-2.000 F200
G1 X8.580 Y9.780 Z-2.000 F1200
G0 Z2.000
G0 X-5.940 Y9.780
G1 X-6.440 Y9.780 Z1.333 F200
G1 X-6.940 Y9.780 Z0.667 F200
G1 X-7.440 Y9.780 Z0.000 F200
G1 X-7.940 Y9.780 Z-0.667 F200
G1 X-8.440 Y9.780 Z-1.333 F200
G1 X-8.940 Y9.780 Z-2.000 F200
G1 X-16.020 Y9.780 Z-2.000 F1200
G0 Z2.000
G0 X-16.020 Y9.180
G1 X-15.520 Y9.180 Z1.333 F200
G1 X-15.020 Y9.180 Z0.667 F200
G1 X-14.520 Y9.180 Z0.000 F200
G1 X-14.020 Y9.180 Z-0.667 F200
G1 X-13.520 Y9.180 Z-1.333 F200
G1 X-13.020 Y9.180 Z-2.000 F200
G1 X-5.940 Y9.180 Z-2.000 F1200
G0 Z2.000
G0 X8.820 Y9.180
G1 X9.320 Y9.180 Z1.333 F200
G1 X9.820 Y9.180 Z0.667 F200
G1 X10.320 Y9.180 Z0.000 F200
G1 X10.820 Y9.180 Z-0.667 F200
G1 X11.320 Y9.180 Z-1.333 F200
G1 X11.820 Y9.180 Z-2.000 F200
G1 X19.620 Y9.180 Z-2.000 F1200
G0 Z2.000
G0 X19.860 Y8.580
G1 X19.360 Y8.580 Z1.333 F200
G1 X18.860 Y8.580 Z0.667 F200
G1 X18.360 Y8.580 Z0.000 F200
G1 X17.860 Y8.580 Z-0.667 F200
G1 X17.360 Y8.580 Z-1.333 F200
G1 X16.860 Y8.580 Z-2.000 F200
G1 X8.940 Y8.580 Z-2.000 F1200
G0 Z2.000
G0 X-5.940 Y8.580
G1 X-6.440 Y8.580 Z1.333 F200
G1 X-6.940 Y8.580 Z0.667 F200
G1 X-7.440 Y8.580 Z0.000 F200
G1 X-7.940 Y8.580 Z-0.667 F200
G1 X-8.440 Y8.580 Z-1.333 F200
G1 X-8.940 Y8.580 Z-2.000 F200
G1 X-16.020 Y8.580 Z-2.000 F1200
G0 Z2.000
G0 X-16.020 Y7.980
G1 X-15.520 Y7.980 Z1.333 F200
G1 X-15.020 Y7.980 Z0.667 F200
G1 X-14.520 Y7.980 Z0.000 F200
G1 X-14.020 Y7.980 Z-0.667 F200
G1 X-13.520 Y7.980 Z-1.333 F200
G1 X-13.020 Y7.980 Z-2.000 F200
G1 X-5.940 Y7.980 Z-2.000 F1200
G0 Z2.000
G0 X9.180 Y7.980
G1 X9.680 Y7.980 Z1.333 F200
G1 X10.180 Y7.980 Z0.667 F200
G1 X10.680 Y7.980 Z0.000 F200
G1 X11.180 Y7.980 Z-0.667 F200
G1 X11.680 Y7.980 Z-1.333 F200
G1 X12.180 Y7.980 Z-2.000 F200
G1 X20.100 Y7.980 Z-2.000 F1200
G0 Z2.000
G0 X20.340 Y7.380
G1 X19.840 Y7.380 Z1.333 F200
G1 X19.340 Y7.380 Z0.667 F200
G1 X18.840 Y7.380 Z0.000 F200
G1 X18.340 Y7.380 Z-0.667 F200
G1 X17.840 Y7.380 Z-1.333 F200
G1 X17.340 Y7.380 Z-2.000 F200
G1 X9.300 Y7.380 Z-2.000 F1200
G0 Z2.000
G0 X-5.940 Y7.380
G1 X-6.440 Y7.380 Z1.333 F200
G1 X-6.940 Y7.380 Z0.667 F200
G1 X-7.440 Y7.380 Z0.000 F200
G1 X-7.940 Y7.380 Z-0.667 F200
G1 X-8.440 Y7.380 Z-1.333 F200
G1 X-8.940 Y7.380 Z-2.000 F200
G1 X-16.020 Y7.380 Z-2.000 F1200
G0 Z2.000
G0 X-16.020 Y6.780
G1 X-15.520 Y6.780 Z1.333 F200
G1 X-15.020 Y6.780 Z0.667 F200
G1 X-14.520 Y6.780 Z0.000 F200
G1 X-14.020 Y6.780 Z-0.667 F200
G1 X-13.520 Y6.780 Z-1.333 F200
G1 X-13.020 Y6.780 Z-2.000 F200
G1 X-5.940 Y6.780 Z-2.000 F1200
G0 Z2.000
G0 X9.420 Y6.780
G1 X9.920 Y6.780 Z1.333 F200
G1 X10.420 Y6.780 Z0.667 F200
G1 X10.920 Y6.780 Z0.000 F200
G1 X11.420 Y6.780 Z-0.667 F200
G1 X11.920 Y6.780 Z-1.333 F200
G1 X12.420 Y6.780 Z-2.000 F200
G1 X20.460 Y6.780 Z-2.000 F1200
G0 Z2.000
G0 X20.580 Y6.180
G1 X20.080 Y6.180 Z1.333 F200
G1 X19.580 Y6.180 Z0.667 F200
G1 X19.080 Y6.180 Z0.000 F200
G1 X18.580 Y6.180 Z-0.667 F200
G1 X18.080 Y6.180 Z-1.333 F200
G1 X17.580 Y6.180 Z-2.000 F200
G1 X9.540 Y6.180 Z-2.000 F1200
G0 Z2.000
G0 X-5.940 Y6.180
G1 X-6.440 Y6.180 Z1.333 F200
G1 X-6.940 Y6.180 Z0.667 F200
G1 X-7.440 Y6.180 Z0.000 F200
G1 X-7.940 Y6.180 Z-0.667 F200
G1 X-8.440 Y6.180 Z-1.333 F200
G1 X-8.940 Y6.180 Z-2.000 F200
G1 X-16.020 Y6.180 Z-2.000 F1200
G0 Z2.000
G0 X-16.020 Y5.580
G1 X-15.520 Y5.580 Z1.333 F200
G1 X-15.020 Y5.580 Z0.667 F200
G1 X-14.520 Y5.580 Z0.000 F200
G1 X-14.020 Y5.580 Z-0.667 F200
G1 X-13.520 Y5.580 Z-1.333 F200
G1 X-13.020 Y5.580 Z-2.000 F200
G1 X-5.940 Y5.580 Z-2.000 F1200
G0 Z2.000
G0 X9.660 Y5.580
G1 X10.160 Y5.580 Z1.333 F200
G1 X10.660 Y5.580 Z0.667 F200
G1 X11.160 Y5.580 Z0.000 F200
G1 X11.660 Y5.580 Z-0.667 F200
G1 X12.160 Y5.580 Z-1.333 F200
G1 X12.660 Y5.580 Z-2.000 F200
G1 X20.700 Y5.580 Z-2.000 F1200
G0 Z2.000
G0 X20.820 Y4.980
G1 X20.320 Y4.980 Z1.333 F200
G1 X19.820 Y4.980 Z0.667 F200
G1 X19.320 Y4.980 Z0.000 F200
G1 X18.820 Y4.980 Z-0.667 F200
G1 X18.320 Y4.980 Z-1.333 F200
G1 X17.820 Y4.980 Z-2.000 F200
G1 X9.660 Y4.980 Z-2.000 F1200
G0 Z2.000
G0 X-5.940 Y4.980
G1 X-6.440 Y4.980 Z1.333 F200
G1 X-6.940 Y4.980 Z0.667 F200
G1 X-7.440 Y4.980 Z0.000 F200
G1 X-7.940 Y4.980 Z-0.667 F200
G1 X-8.440 Y4.980 Z-1.333 F200
G1 X-8.940 Y4.980 Z-2.000 F200
G1 X-16.020 Y4.980 Z-2.000 F1200
G0 Z2.000
G0 X-16.020 Y4.380
G1 X-15.520 Y4.380 Z1.333 F200
G1 X-15.020 Y4.380 Z0.667 F200
G1 X-14.520 Y4.380 Z0.000 F200
G1 X-14.020 Y4.380 Z-0.667 F200
G1 X-13.520 Y4.380 Z-1.333 F200
G1 X-13.020 Y4.380 Z-2.000 F200
G1 X-5.940 Y4.380 Z-2.000 F1200
G0 Z2.000
G0 X9.780 Y4.380
G1 X10.280 Y4.380 Z1.333 F200
G1 X10.780 Y4.380 Z0.667 F200
G1 X11.280 Y4.380 Z0.000 F200
G1 X11.780 Y4.380 Z-0.667 F200
G1 X12.280 Y4.380 Z-1.333 F200
G1 X12.780 Y4.380 Z-2.000 F200
G1 X20.940 Y4.380 Z-2.000 F1200
G0 Z2.000
G0 X21.060 Y3.780
G1 X20.560 Y3.780 Z1.333 F200
G1 X20.060 Y3.780 Z0.667 F200
G1 X19.560 Y3.780 Z0.000 F200
G1 X19.060 Y3.780 Z-0.667 F200
G1 X18.560 Y3.780 Z-1.333 F200
G1 X18.060 Y3.780 Z-2.000 F200
G1 X9.780 Y3.780 Z-2.000 F1200
G0 Z2.000
G0 X-5.940 Y3.780
G1 X-6.440 Y3.780 Z1.333 F200
G1 X-6.940 Y3.780 Z0.667 F200
G1 X-7.440 Y3.780 Z0.000 F200
G1 X-7.940 Y3.780 Z-0.667 F200
G1 X-8.440 Y3.780 Z-1.333 F200
G1 X-8.940 Y3.780 Z-2.000 F200
G1 X-16.020 Y3.780 Z-2.000 F1200
G0 Z2.000
G0 X-16.020 Y3.180
G1 X-15.520 Y3.180 Z1.333 F200
G1 X-15.020 Y3.180 Z0.667 F200
G1 X-14.520 Y3.180 Z0.000 F200
G1 X-14.020 Y3.180 Z-0.667 F200
G1 X-13.520 Y3.180 Z-1.333 F200
G1 X-13.020 Y3.180 Z-2.000 F200
G1 X-5.940 Y3.180 Z-2.000 F1200
G0 Z2.000
G0 X9.900 Y3.180
G1 X10.400 Y3.180 Z1.333 F200
G1 X10.900 Y3.180 Z0.667 F200
G1 X11.400 Y3.180 Z0.000 F200
G1 X11.900 Y3.180 Z-0.667 F200
G1 X12.400 Y3.180 Z-1.333 F200
G1 X12.900 Y3.180 Z-2.000 F200
G1 X21.180 Y3.180 Z-2.000 F1200
G0 Z2.000
G0 X21.180 Y2.580
G1 X20.680 Y2.580 Z1.333 F200
G1 X20.180 Y2.580 Z0.667 F200
G1 X19.680 Y2.580 Z0.000 F200
G1 X19.180 Y2.580 Z-0.667 F200
G1 X18.680 Y2.580 Z-1.333 F200
G1 X18.180 Y2.580 Z-2.000 F200
G1 X9.900 Y2.580 Z-2.000 F1200
G0 Z2.000
G0 X-5.940 Y2.580
G1 X-6.440 Y2.580 Z1.333 F200
G1 X-6.940 Y2.580 Z0.667 F200
G1 X-7.440 Y2.580 Z0.000 F200
G1 X-7.940 Y2.580 Z-0.667 F200
G1 X-8.440 Y2.580 Z-1.333 F200
G1 X-8.940 Y2.580 Z-2.000 F200
G1 X-16.020 Y2.580 Z-2.000 F1200
G0 Z2.000
G0 X-16.020 Y1.980
G1 X-15.520 Y1.980 Z1.333 F200
G1 X-15.020 Y1.980 Z0.667 F200
G1 X-14.520 Y1.980 Z0.000 F200
G1 X-14.020 Y1.980 Z-0.667 F200
G1 X-13.520 Y1.980 Z-1.333 F200
G1 X-13.020 Y1.980 Z-2.000 F200
G1 X-5.940 Y1.980 Z-2.000 F1200
G0 Z2.000
G0 X9.900 Y1.980
G1 X10.400 Y1.980 Z1.333 F200
G1 X10.900 Y1.980 Z0.667 F200
G1 X11.400 Y1.980 Z0.000 F200
G1 X11.900 Y1.980 Z-0.667 F200
G1 X12.400 Y1.980 Z-1.333 F200
G1 X12.900 Y1.980 Z-2.000 F200
G1 X21.180 Y1.980 Z-2.000 F1200
G0 Z2.000
G0 X21.300 Y1.380
G1 X20.800 Y1.380 Z1.333 F200
G1 X20.300 Y1.380 Z0.667 F200
G1 X19.800 Y1.380 Z0.000 F200
G1 X19.300 Y1.380 Z-0.667 F200
G1 X18.800 Y1.380 Z-1.333 F200
G1 X18.300 Y1.380 Z-2.000 F200
G1 X9.900 Y1.380 Z-2.000 F1200
G0 Z2.000
G0 X-5.940 Y1.380
G1 X-6.440 Y1.380 Z1.333 F200
G1 X-6.940 Y1.380 Z0.667 F200
G1 X-7.440 Y1.380 Z0.000 F200
G1 X-7.940 Y1.380 Z-0.667 F200
G1 X-8.440 Y1.380 Z-1.333 F200
G1 X-8.940 Y1.380 Z-2.000 F200
G1 X-16.020 Y1.380 Z-2.000 F1200
G0 Z2.000
G0 X-16.020 Y0.780
G1 X-15.520 Y0.780 Z1.333 F200
G1 X-15.020 Y0.780 Z0.667 F200
G1 X-14.520 Y0.780 Z0.000 F200
G1 X-14.020 Y0.780 Z-0.667 F200
G1 X-13.520 Y0.780 Z-1.333 F200
G1 X-13.020 Y0.780 Z-2.000 F200
G1 X-5.940 Y0.780 Z-2.000 F1200
G0 Z2.000
G0 X9.900 Y0.780
G1 X10.400 Y0.780 Z1.333 F200
G1 X10.900 Y0.780 Z0.667 F200
G1 X11.400 Y0.780 Z0.000 F200
G1 X11.900 Y0.780 Z-0.667 F200
G1 X12.400 Y0.780 Z-1.333 F200
G1 X12.900 Y0.780 Z-2.000 F200
G1 X21.300 Y0.780 Z-2.000 F1200
G0 Z2.000
G0 X21.300 Y0.180
G1 X20.800 Y0.180 Z1.333 F200
G1 X20.300 Y0.180 Z0.667 F200
G1 X19.800 Y0.180 Z0.000 F200
G1 X19.300 Y0.180 Z-0.667 F200
G1 X18.800 Y0.180 Z-1.333 F200
G1 X18.300 Y0.180 Z-2.000 F200
G1 X9.900 Y0.180 Z-2.000 F1200
G0 Z2.000
G0 X-5.940 Y0.180
G1 X-6.440 Y0.180 Z1.333 F200
G1 X-6.940 Y0.180 Z0.667 F200
G1 X-7.440 Y0.180 Z0.000 F200
G1 X-7.940 Y0.180 Z-0.667 F200
G1 X-8.440 Y0.180 Z-1.333 F200
G1 X-8.940 Y0.180 Z-2.000 F200
G1 X-16.020 Y0.180 Z-2.000 F1200
G0 Z2.000
G0 X-16.020 Y-0.420
G1 X-15.520 Y-0.420 Z1.333 F200
G1 X-15.020 Y-0.420 Z0.667 F200
G1 X-14.520 Y-0.420 Z0.000 F200
G1 X-14.020 Y-0.420 Z-0.667 F200
G1 X-13.520 Y-0.420 Z-1.333 F200
G1 X-13.020 Y-0.420 Z-2.000 F200
G1 X-5.940 Y-0.420 Z-2.000 F1200
G0 Z2.000
G0 X9.900 Y-0.420
G1 X10.400 Y-0.420 Z1.333 F200
G1 X10.900 Y-0.420 Z0.667 F200
G1 X11.400 Y-0.420 Z0.000 F200
G1 X11.900 Y-0.420 Z-0.667 F200
G1 X12.400 Y-0.420 Z-1.333 F200
G1 X12.900 Y-0.420 Z-2.000 F200
G1 X21.300 Y-0.420 Z-2.000 F1200
G0 Z2.000
G0 X21.300 Y-1.020
G1 X20.800 Y-1.020 Z1.333 F200
G1 X20.300 Y-1.020 Z0.667 F200
G1 X19.800 Y-1.020 Z0.000 F200
G1 X19.300 Y-1.020 Z-0.667 F200
G1 X18.800 Y-1.020 Z-1.333 F200
G1 X18.300 Y-1.020 Z-2.000 F200
G1 X9.900 Y-1.020 Z-2.000 F1200
G0 Z2.000
G0 X-5.940 Y-1.020
G1 X-6.440 Y-1.020 Z1.333 F200
G1 X-6.940 Y-1.020 Z0.667 F200
G1 X-7.440 Y-1.020 Z0.000 F200
G1 X-7.940 Y-1.020 Z-0.667 F200
G1 X-8.440 Y-1.020 Z-1.333 F200
G1 X-8.940 Y-1.020 Z-2.000 F200
G1 X-16.020 Y-1.020 Z-2.000 F1200
G0 Z2.000
G0 X-16.020 Y-1.620
G1 X-15.520 Y-1.620 Z1.333 F200
G1 X-15.020 Y-1.620 Z0.667 F200
G1 X-14.520 Y-1.620 Z0.000 F200
G1 X-14.020 Y-1.620 Z-0.667 F200
G1 X-13.520 Y-1.620 Z-1.333 F200
G1 X-13.020 Y-1.620 Z-2.000 F200
G1 X-5.940 Y-1.620 Z-2.000 F1200
G0 Z2.000
G0 X9.900 Y-1.620
G1 X10.400 Y-1.620 Z1.333 F200
G1 X10.900 Y-1.620 Z0.667 F200
G1 X11.400 Y-1.620 Z0.000 F200
G1 X11.900 Y-1.620 Z-0.667 F200
G1 X12.400 Y-1.620 Z-1.333 F200
G1 X12.900 Y-1.620 Z-2.000 F200
G1 X21.180 Y-1.620 Z-2.000 F1200
G0 Z2.000
G0 X21.180 Y-2.220
G1 X20.680 Y-2.220 Z1.333 F200
G1 X20.180 Y-2.220 Z0.667 F200
G1 X19.680 Y-2.220 Z0.000 F200
G1 X19.180 Y-2.220 Z-0.667 F200
G1 X18.680 Y-2.220 Z-1.333 F200
G1 X18.180 Y-2.220 Z-2.000 F200
G1 X9.900 Y-2.220 Z-2.000 F1200
G0 Z2.000
G0 X-5.940 Y-2.220
G1 X-6.440 Y-2.220 Z1.333 F200
G1 X-6.940 Y-2.220 Z0.667 F200
G1 X-7.440 Y-2.220 Z0.000 F200
G1 X-7.940 Y-2.220 Z-0.667 F200
G1 X-8.440 Y-2.220 Z-1.333 F200
G1 X-8.940 Y-2.220 Z-2.000 F200
G1 X-16.020 Y-2.220 Z-2.000 F1200
G0 Z2.000
G0 X-16.020 Y-2.820
G1 X-15.520 Y-2.820 Z1.333 F200
G1 X-15.020 Y-2.820 Z0.667 F200
G1 X-14.520 Y-2.820 Z0.000 F200
G1 X-14.020 Y-2.820 Z-0.667 F200
G1 X-13.520 Y-2.820 Z-1.333 F200
G1 X-13.020 Y-2.820 Z-2.000 F200
G1 X-5.940 Y-2.820 Z-2.000 F1200
G0 Z2.000
G0 X9.900 Y-2.820
G1 X10.400 Y-2.820 Z1.333 F200
G1 X10.900 Y-2.820 Z0.667 F200
G1 X11.400 Y-2.820 Z0.000 F200
G1 X11.900 Y-2.820 Z-0.667 F200
G1 X12.400 Y-2.820 Z-1.333 F200
G1 X12.900 Y-2.820 Z-2.000 F200
G1 X21.180 Y-2.820 Z-2.000 F1200
G0 Z2.000
G0 X21.060 Y-3.420
G1 X20.560 Y-3.420 Z1.333 F200
G1 X20.060 Y-3.420 Z0.667 F200
G1 X19.560 Y-3.420 Z0.000 F200
G1 X19.060 Y-3.420 Z-0.667 F200
G1 X18.560 Y-3.420 Z-1.333 F200
G1 X18.060 Y-3.420 Z-2.000 F200
G1 X9.780 Y-3.420 Z-2.000 F1200
G0 Z2.000
G0 X-5.940 Y-3.420
G1 X-6.440 Y-3.420 Z1.333 F200
G1 X-6.940 Y-3.420 Z0.667 F200
G1 X-7.440 Y-3.420 Z0.000 F200
G1 X-7.940 Y-3.420 Z-0.667 F200
G1 X-8.440 Y-3.420 Z-1.333 F200
G1 X-8.940 Y-3.420 Z-2.000 F200
G1 X-16.020 Y-3.420 Z-2.000 F1200
G0 Z2.000
G0 X-16.020 Y-4.020
G1 X-15.520 Y-4.020 Z1.333 F200
G1 X-15.020 Y-4.020 Z0.667 F200
G1 X-14.520 Y-4.020 Z0.000 F200
G1 X-14.020 Y-4.020 Z-0.667 F200
G1 X-13.520 Y-4.020 Z-1.333 F200
G1 X-13.020 Y-4.020 Z-2.000 F200
G1 X-5.940 Y-4.020 Z-2.000 F1200
G0 Z2.000
G0 X9.780 Y-4.020
G1 X10.280 Y-4.020 Z1.333 F200
G1 X10.780 Y-4.020 Z0.667 F200
G1 X11.280 Y-4.020 Z0.000 F200
G1 X11.780 Y-4.020 Z-0.667 F200
G1 X12.280 Y-4.020 Z-1.333 F200
G1 X12.780 Y-4.020 Z-2.000 F200
G1 X20.940 Y-4.020 Z-2.000 F1200
G0 Z2.000
G0 X20.940 Y-4.620
G1 X20.440 Y-4.620 Z1.333 F200
G1 X19.940 Y-4.620 Z0.667 F200
G1 X19.440 Y-4.620 Z0.000 F200
G1 X18.940 Y-4.620 Z-0.667 F200
G1 X18.440 Y-4.620 Z-1.333 F200
G1 X17.940 Y-4.620 Z-2.000 F200
G1 X9.660 Y-4.620 Z-2.000 F1200
G0 Z2.000
G0 X-5.940 Y-4.620
G1 X-6.440 Y-4.620 Z1.333 F200
G1 X-6.940 Y-4.620 Z0.667 F200
G1 X-7.440 Y-4.620 Z0.000 F200
G1 X-7.940 Y-4.620 Z-0.667 F200
G1 X-8.440 Y-4.620 Z-1.333 F200
G1 X-8.940 Y-4.620 Z-2.000 F200
G1 X-16.020 Y-4.620 Z-2.000 F1200
G0 Z2.000
G0 X-16.020 Y-5.220
G1 X-15.520 Y-5.220 Z1.333 F200
G1 X-15.020 Y-5.220 Z0.667 F200
G1 X-14.520 Y-5.220 Z0.000 F200
G1 X-14.020 Y-5.220 Z-0.667 F200
G1 X-13.520 Y-5.220 Z-1.333 F200
G1 X-13.020 Y-5.220 Z-2.000 F200
G1 X-5.940 Y-5.220 Z-2.000 F1200
G0 Z2.000
G0 X9.660 Y-5.220
G1 X10.160 Y-5.220 Z1.333 F200
G1 X10.660 Y-5.220 Z0.667 F200
G1 X11.160 Y-5.220 Z0.000 F200
G1 X11.660 Y-5.220 Z-0.667 F200
G1 X12.160 Y-5.220 Z-1.333 F200
G1 X12.660 Y-5.220 Z-2.000 F200
G1 X20.820 Y-5.220 Z-2.000 F1200
G0 Z2.000
G0 X20.700 Y-5.820
G1 X20.200 Y-5.820 Z1.333 F200
G1 X19.700 Y-5.820 Z0.667 F200
G1 X19.200 Y-5.820 Z0.000 F200
G1 X18.700 Y-5.820 Z-0.667 F200
G1 X18.200 Y-5.820 Z-1.333 F200
G1 X17.700 Y-5.820 Z-2.000 F200
G1 X9.540 Y-5.820 Z-2.000 F1200
G0 Z2.000
G0 X-5.940 Y-5.820
G1 X-6.440 Y-5.820 Z1.333 F200
G1 X-6.940 Y-5.820 Z0.667 F200
G1 X-7.440 Y-5.820 Z0.000 F200
G1 X-7.940 Y-5.820 Z-0.667 F200
G1 X-8.440 Y-5.820 Z-1.333 F200
G1 X-8.940 Y-5.820 Z-2.000 F200
G1 X-16.020 Y-5.820 Z-2.000 F1200
G0 Z2.000
G0 X-16.020 Y-6.420
G1 X-15.520 Y-6.420 Z1.333 F200
G1 X-15.020 Y-6.420 Z0.667 F200
G1 X-14.520 Y-6.420 Z0.000 F200
G1 X-14.020 Y-6.420 Z-0.667 F200
G1 X-13.520 Y-6.420 Z-1.333 F200
G1 X-13.020 Y-6.420 Z-2.000 F200
G1 X-5.940 Y-6.420 Z-2.000 F1200
G0 Z2.000
G0 X9.420 Y-6.420
G1 X9.920 Y-6.420 Z1.333 F200
G1 X10.420 Y-6.420 Z0.667 F200
G1 X10.920 Y-6.420 Z0.000 F200
G1 X11.420 Y-6.420 Z-0.667 F200
G1 X11.920 Y-6.420 Z-1.333 F200
G1 X12.420 Y-6.420 Z-2.000 F200
G1 X20.460 Y-6.420 Z-2.000 F1200
G0 Z2.000
G0 X20.340 Y-7.020
G1 X19.840 Y-7.020 Z1.333 F200
G1 X19.340 Y-7.020 Z0.667 F200
G1 X18.840 Y-7.020 Z0.000 F200
G1 X18.340 Y-7.020 Z-0.667 F200
G1 X17.840 Y-7.020 Z-1.333 F200
G1 X17.340 Y-7.020 Z-2.000 F200
G1 X9.300 Y-7.020 Z-2.000 F1200
G0 Z2.000
G0 X-5.940 Y-7.020
G1 X-6.440 Y-7.020 Z1.333 F200
G1 X-6.940 Y-7.020 Z0.667 F200
G1 X-7.440 Y-7.020 Z0.000 F200
G1 X-7.940 Y-7.020 Z-0.667 F200
G1 X-8.440 Y-7.020 Z-1.333 F200
G1 X-8.940 Y-7.020 Z-2.000 F200
G1 X-16.020 Y-7.020 Z-2.000 F1200
G0 Z2.000
G0 X-16.020 Y-7.620
G1 X-15.520 Y-7.620 Z1.333 F200
G1 X-15.020 Y-7.620 Z0.667 F200
G1 X-14.520 Y-7.620 Z0.000 F200
G1 X-14.020 Y-7.620 Z-0.667 F200
G1 X-13.520 Y-7.620 Z-1.333 F200
G1 X-13.020 Y-7.620 Z-2.000 F200
G1 X-5.940 Y-7.620 Z-2.000 F1200
G0 Z2.000
G0 X9.180 Y-7.620
G1 X9.680 Y-7.620 Z1.333 F200
G1 X10.180 Y-7.620 Z0.667 F200
G1 X10.680 Y-7.620 Z0.000 F200
G1 X11.180 Y-7.620 Z-0.667 F200
G1 X11.680 Y-7.620 Z-1.333 F200
G1 X12.180 Y-7.620 Z-2.000 F200
G1 X20.220 Y-7.620 Z-2.000 F1200
G0 Z2.000
G0 X19.980 Y-8.220
G1 X19.480 Y-8.220 Z1.333 F200
G1 X18.980 Y-8.220 Z0.667 F200
G1 X18.480 Y-8.220 Z0.000 F200
G1 X17.980 Y-8.220 Z-0.667 F200
G1 X17.480 Y-8.220 Z-1.333 F200
G1 X16.980 Y-8.220 Z-2.000 F200
G1 X9.060 Y-8.220 Z-2.000 F1200
G0 Z2.000
G0 X-5.940 Y-8.220
G1 X-6.440 Y-8.220 Z1.333 F200
G1 X-6.940 Y-8.220 Z0.667 F200
G1 X-7.440 Y-8.220 Z0.000 F200
G1 X-7.940 Y-8.220 Z-0.667 F200
G1 X-8.440 Y-8.220 Z-1.333 F200
G1 X-8.940 Y-8.220 Z-2.000 F200
G1 X-16.020 Y-8.220 Z-2.000 F1200
G0 Z2.000
G0 X-16.020 Y-8.820
G1 X-15.520 Y-8.820 Z1.333 F200
G1 X-15.020 Y-8.820 Z0.667 F200
G1 X-14.520 Y-8.820 Z0.000 F200
G1 X-14.020 Y-8.820 Z-0.667 F200
G1 X-13.520 Y-8.820 Z-1.333 F200
G1 X-13.020 Y-8.820 Z-2.000 F200
G1 X-5.940 Y-8.820 Z-2.000 F1200
G0 Z2.000
G0 X8.820 Y-8.820
G1 X9.320 Y-8.820 Z1.333 F200
G1 X9.820 Y-8.820 Z0.667 F200
G1 X10.320 Y-8.820 Z0.000 F200
G1 X10.820 Y-8.820 Z-0.667 F200
G1 X11.320 Y-8.820 Z-1.333 F200
G1 X11.820 Y-8.820 Z-2.000 F200
G1 X19.740 Y-8.820 Z-2.000 F1200
G0 Z2.000
G0 X19.500 Y-9.420
G1 X19.000 Y-9.420 Z1.333 F200
G1 X18.500 Y-9.420 Z0.667 F200
G1 X18.000 Y-9.420 Z0.000 F200
G1 X17.500 Y-9.420 Z-0.667 F200
G1 X17.000 Y-9.420 Z-1.333 F200
G1 X16.500 Y-9.420 Z-2.000 F200
G1 X8.700 Y-9.420 Z-2.000 F1200
G0 Z2.000
G0 X-5.940 Y-9.420
G1 X-6.440 Y-9.420 Z1.333 F200
G1 X-6.940 Y-9.420 Z0.667 F200
G1 X-7.440 Y-9.420 Z0.000 F200
G1 X-7.940 Y-9.420 Z-0.667 F200
G1 X-8.440 Y-9.420 Z-1.333 F200
G1 X-8.940 Y-9.420 Z-2.000 F200
G1 X-16.020 Y-9.420 Z-2.000 F1200
G0 Z2.000
G0 X-16.020 Y-10.020
G1 X-15.520 Y-10.020 Z1.333 F200
G1 X-15.020 Y-10.020 Z0.667 F200
G1 X-14.520 Y-10.020 Z0.000 F200
G1 X-14.020 Y-10.020 Z-0.667 F200
G1 X-13.520 Y-10.020 Z-1.333 F200
G1 X-13.020 Y-10.020 Z-2.000 F200
G1 X-5.940 Y-10.020 Z-2.000 F1200
G0 Z2.000
G0 X8.460 Y-10.020
G1 X8.960 Y-10.020 Z1.333 F200
G1 X9.460 Y-10.020 Z0.667 F200
G1 X9.960 Y-10.020 Z0.000 F200
G1 X10.460 Y-10.020 Z-0.667 F200
G1 X10.960 Y-10.020 Z-1.333 F200
G1 X11.460 Y-10.020 Z-2.000 F200
G1 X19.140 Y-10.020 Z-2.000 F1200
G0 Z2.000
G0 X18.900 Y-10.620
G1 X18.400 Y-10.620 Z1.333 F200
G1 X17.900 Y-10.620 Z0.667 F200
G1 X17.400 Y-10.620 Z0.000 F200
G1 X16.900 Y-10.620 Z-0.667 F200
G1 X16.400 Y-10.620 Z-1.333 F200
G1 X15.900 Y-10.620 Z-2.000 F200
G1 X8.220 Y-10.620 Z-2.000 F1200
G0 Z2.000
G0 X-5.940 Y-10.620
G1 X-6.440 Y-10.620 Z1.333 F200
G1 X-6.940 Y-10.620 Z0.667 F200
G1 X-7.440 Y-10.620 Z0.000 F200
G1 X-7.940 Y-10.620 Z-0.667 F200
G1 X-8.440 Y-10.620 Z-1.333 F200
G1 X-8.940 Y-10.620 Z-2.000 F200
G1 X-16.020 Y-10.620 Z-2.000 F1200
G0 Z2.000
G0 X-16.020 Y-11.220
G1 X-15.520 Y-11.220 Z1.333 F200
G1 X-15.020 Y-11.220 Z0.667 F200
G1 X-14.520 Y-11.220 Z0.000 F200
G1 X-14.020 Y-11.220 Z-0.667 F200
G1 X-13.520 Y-11.220 Z-1.333 F200
G1 X-13.020 Y-11.220 Z-2.000 F200
G1 X-5.940 Y-11.220 Z-2.000 F1200
G0 Z2.000
G0 X7.860 Y-11.220
G1 X8.360 Y-11.220 Z1.333 F200
G1 X8.860 Y-11.220 Z0.667 F200
G1 X9.360 Y-11.220 Z0.000 F200
G1 X9.860 Y-11.220 Z-0.667 F200
G1 X10.360 Y-11.220 Z-1.333 F200
G1 X10.860 Y-11.220 Z-2.000 F200
G1 X18.540 Y-11.220 Z-2.000 F1200
G0 Z2.000
G0 X18.180 Y-11.820
G1 X17.680 Y-11.820 Z1.333 F200
G1 X17.180 Y-11.820 Z0.667 F200
G1 X16.680 Y-11.820 Z0.000 F200
G1 X16.180 Y-11.820 Z-0.667 F200
G1 X15.680 Y-11.820 Z-1.333 F200
G1 X15.180 Y-11.820 Z-2.000 F200
G1 X7.620 Y-11.820 Z-2.000 F1200
G0 Z2.000
G0 X-5.940 Y-11.820
G1 X-6.440 Y-11.820 Z1.333 F200
G1 X-6.940 Y-11.820 Z0.667 F200
G1 X-7.440 Y-11.820 Z0.000 F200
G1 X-7.940 Y-11.820 Z-0.667 F200
G1 X-8.440 Y-11.820 Z-1.333 F200
G1 X-8.940 Y-11.820 Z-2.000 F200
G1 X-16.020 Y-11.820 Z-2.000 F1200
G0 Z2.000
G0 X-16.020 Y-12.420
G1 X-15.520 Y-12.420 Z1.333 F200
G1 X-15.020 Y-12.420 Z0.667 F200
G1 X-14.520 Y-12.420 Z0.000 F200
G1 X-14.020 Y-12.420 Z-0.667 F200
G1 X-13.520 Y-12.420 Z-1.333 F200
G1 X-13.020 Y-12.420 Z-2.000 F200
G1 X-5.940 Y-12.420 Z-2.000 F1200
G0 Z2.000
G0 X7.140 Y-12.420
G1 X7.640 Y-12.420 Z1.333 F200
G1 X8.140 Y-12.420 Z0.667 F200
G1 X8.640 Y-12.420 Z0.000 F200
G1 X9.140 Y-12.420 Z-0.667 F200
G1 X9.640 Y-12.420 Z-1.333 F200
G1 X10.140 Y-12.420 Z-2.000 F200
G1 X17.700 Y-12.420 Z-2.000 F1200
G0 Z2.000
G0 X17.220 Y-13.020
G1 X16.720 Y-13.020 Z1.333 F200
G1 X16.220 Y-13.020 Z0.667 F200
G1 X15.720 Y-13.020 Z0.000 F200
G1 X15.220 Y-13.020 Z-0.667 F200
G1 X14.720 Y-13.020 Z-1.333 F200
G1 X14.220 Y-13.020 Z-2.000 F200
G1 X6.780 Y-13.020 Z-2.000 F1200
G0 Z2.000
G0 X-5.940 Y-13.020
G1 X-6.440 Y-13.020 Z1.333 F200
G1 X-6.940 Y-13.020 Z0.667 F200
G1 X-7.440 Y-13.020 Z0.000 F200
G1 X-7.940 Y-13.020 Z-0.667 F200
G1 X-8.440 Y-13.020 Z-1.333 F200
G1 X-8.940 Y-13.020 Z-2.000 F200
G1 X-16.020 Y-13.020 Z-2.000 F1200
G0 Z2.000
G0 X-16.020 Y-13.620
G1 X-15.520 Y-13.620 Z1.333 F200
G1 X-15.020 Y-13.620 Z0.667 F200
G1 X-14.520 Y-13.620 Z0.000 F200
G1 X-14.020 Y-13.620 Z-0.667 F200
G1 X-13.520 Y-13.620 Z-1.333 F200
G1 X-13.020 Y-13.620 Z-2.000 F200
G1 X-5.940 Y-13.620 Z-2.000 F1200
G0 Z2.000
G0 X6.180 Y-13.620
G1 X6.680 Y-13.620 Z1.333 F200
G1 X7.180 Y-13.620 Z0.667 F200
G1 X7.680 Y-13.620 Z0.000 F200
G1 X8.180 Y-13.620 Z-0.667 F200
G1 X8.680 Y-13.620 Z-1.333 F200
G1 X9.180 Y-13.620 Z-2.000 F200
G1 X16.740 Y-13.620 Z-2.000 F1200
G0 Z2.000
G0 X16.140 Y-14.220
G1 X15.640 Y-14.220 Z1.333 F200
G1 X15.140 Y-14.220 Z0.667 F200
G1 X14.640 Y-14.220 Z0.000 F200
G1 X14.140 Y-14.220 Z-0.667 F200
G1 X13.640 Y-14.220 Z-1.333 F200
G1 X13.140 Y-14.220 Z-2.000 F200
G1 X5.580 Y-14.220 Z-2.000 F1200
G0 Z2.000
G0 X-5.940 Y-14.220
G1 X-6.440 Y-14.220 Z1.333 F200
G1 X-6.940 Y-14.220 Z0.667 F200
G1 X-7.440 Y-14.220 Z0.000 F200
G1 X-7.940 Y-14.220 Z-0.667 F200
G1 X-8.440 Y-14.220 Z-1.333 F200
G1 X-8.940 Y-14.220 Z-2.000 F200
G1 X-16.020 Y-14.220 Z-2.000 F1200
G0 Z2.000
G0 X-16.020 Y-14.820
G1 X-15.520 Y-14.820 Z1.333 F200
G1 X-15.020 Y-14.820 Z0.667 F200
G1 X-14.520 Y-14.820 Z0.000 F200
G1 X-14.020 Y-14.820 Z-0.667 F200
G1 X-13.520 Y-14.820 Z-1.333 F200
G1 X-13.020 Y-14.820 Z-2.000 F200
G1 X-5.940 Y-14.820 Z-2.000 F1200
G0 Z2.000
G0 X4.860 Y-14.820
G1 X5.360 Y-14.820 Z1.333 F200
G1 X5.860 Y-14.820 Z0.667 F200
G1 X6.360 Y-14.820 Z0.000 F200
G1 X6.860 Y-14.820 Z-0.667 F200
G1 X7.360 Y-14.820 Z-1.333 F200
G1 X7.860 Y-14.820 Z-2.000 F200
G1 X15.540 Y-14.820 Z-2.000 F1200
G0 Z2.000
G0 X14.820 Y-15.420
G1 X14.320 Y-15.420 Z1.333 F200
G1 X13.820 Y-15.420 Z0.667 F200
G1 X13.320 Y-15.420 Z0.000 F200
G1 X12.820 Y-15.420 Z-0.667 F200
G1 X12.320 Y-15.420 Z-1.333 F200
G1 X11.820 Y-15.420 Z-2.000 F200
G1 X3.780 Y-15.420 Z-2.000 F1200
G0 Z2.000
G0 X-5.940 Y-15.420
G1 X-6.440 Y-15.420 Z1.333 F200
G1 X-6.940 Y-15.420 Z0.667 F200
G1 X-7.440 Y-15.420 Z0.000 F200
G1 X-7.940 Y-15.420 Z-0.667 F200
G1 X-8.440 Y-15.420 Z-1.333 F200
G1 X-8.940 Y-15.420 Z-2.000 F200
G1 X-16.020 Y-15.420 Z-2.000 F1200
G0 Z2.000
G0 X-16.020 Y-16.020
G1 X-15.520 Y-16.020 Z1.333 F200
G1 X-15.020 Y-16.020 Z0.667 F200
G1 X-14.520 Y-16.020 Z0.000 F200
G1 X-14.020 Y-16.020 Z-0.667 F200
G1 X-13.520 Y-16.020 Z-1.333 F200
G1 X-13.020 Y-16.020 Z-2.000 F200
G1 X-5.940 Y-16.020 Z-2.000 F1200
G0 Z2.000
G0 X2.340 Y-16.020
G1 X2.840 Y-16.020 Z1.333 F200
G1 X3.340 Y-16.020 Z0.667 F200
G1 X3.840 Y-16.020 Z0.000 F200
G1 X4.340 Y-16.020 Z-0.667 F200
G1 X4.840 Y-16.020 Z-1.333 F200
G1 X5.340 Y-16.020 Z-2.000 F200
G1 X13.980 Y-16.020 Z-2.000 F1200
G0 Z2.000
G0 X13.140 Y-16.620
G1 X12.640 Y-16.620 Z1.333 F200
G1 X12.140 Y-16.620 Z0.667 F200
G1 X11.640 Y-16.620 Z0.000 F200
G1 X11.140 Y-16.620 Z-0.667 F200
G1 X10.640 Y-16.620 Z-1.333 F200
G1 X10.140 Y-16.620 Z-2.000 F200
G1 X-1.380 Y-16.620 Z-2.000 F1200
G0 Z2.000
G0 X-5.820 Y-16.620
G1 X-6.320 Y-16.620 Z1.333 F200
G1 X-6.820 Y-16.620 Z0.667 F200
G1 X-7.320 Y-16.620 Z0.000 F200
G1 X-7.820 Y-16.620 Z-0.667 F200
G1 X-8.320 Y-16.620 Z-1.333 F200
G1 X-8.820 Y-16.620 Z-2.000 F200
G1 X-16.140 Y-16.620 Z-2.000 F1200
G0 Z2.000
G0 X-21.180 Y-17.220
G1 X-20.680 Y-17.220 Z1.333 F200
G1 X-20.180 Y-17.220 Z0.667 F200
G1 X-19.680 Y-17.220 Z0.000 F200
G1 X-19.180 Y-17.220 Z-0.667 F200
G1 X-18.680 Y-17.220 Z-1.333 F200
G1 X-18.180 Y-17.220 Z-2.000 F200
G1 X12.060 Y-17.220 Z-2.000 F1200
G0 Z2.000
G0 X10.860 Y-17.820
G1 X10.360 Y-17.820 Z1.333 F200
G1 X9.860 Y-17.820 Z0.667 F200
G1 X9.360 Y-17.820 Z0.000 F200
G1 X8.860 Y-17.820 Z-0.667 F200
G1 X8.360 Y-17.820 Z-1.333 F200
G1 X7.860 Y-17.820 Z-2.000 F200
G1 X-21.180 Y-17.820 Z-2.000 F1200
G0 Z2.000
G0 X-21.180 Y-18.420
G1 X-20.680 Y-18.420 Z1.333 F200
G1 X-20.180 Y-18.420 Z0.667 F200
G1 X-19.680 Y-18.420 Z0.000 F200
G1 X-19.180 Y-18.420 Z-0.667 F200
G1 X-18.680 Y-18.420 Z-1.333 F200
G1 X-18.180 Y-18.420 Z-2.000 F200
G1 X9.300 Y-18.420 Z-2.000 F1200
G0 Z2.000
G0 X7.260 Y-19.020
G1 X6.760 Y-19.020 Z1.333 F200
G1 X6.260 Y-19.020 Z0.667 F200
G1 X5.760 Y-19.020 Z0.000 F200
G1 X5.260 Y-19.020 Z-0.667 F200
G1 X4.760 Y-19.020 Z-1.333 F200
G1 X4.260 Y-19.020 Z-2.000 F200
G1 X-21.180 Y-19.020 Z-2.000 F1200
G0 Z2.000
G0 X-21.180 Y-19.620
G1 X-20.680 Y-19.620 Z1.333 F200
G1 X-20.180 Y-19.620 Z0.667 F200
G1 X-19.680 Y-19.620 Z0.000 F200
G1 X-19.180 Y-19.620 Z-0.667 F200
G1 X-18.680 Y-19.620 Z-1.333 F200
G1 X-18.180 Y-19.620 Z-2.000 F200
G1 X4.260 Y-19.620 Z-2.000 F1200
G0 Z2.000
G0 Z2.000
G0 X-21.240 Y19.980
G1 X-21.240 Y19.980 Z2.000 F200
G1 X-21.240 Y19.860 Z1.000 F200
G1 X-21.240 Y19.740 Z0.000 F200
G1 X-21.240 Y19.620 Z-1.000 F200
G1 X-21.240 Y19.500 Z-2.000 F200
G1 X-21.240 Y19.380 Z-2.000 F1200
G1 X-21.240 Y19.260 Z-2.000 F1200
G1 X-21.240 Y19.140 Z-2.000 F1200
G1 X-21.240 Y19.020 Z-2.000 F1200
G1 X-21.240 Y18.900 Z-2.000 F1200
G1 X-21.240 Y18.780 Z-2.000 F1200
G1 X-21.240 Y18.660 Z-2.000 F1200
G1 X-21.240 Y18.540 Z-2.000 F1200
G1 X-21.240 Y18.420 Z-2.000 F1200
G1 X-21.240 Y18.300 Z-2.000 F1200
G1 X-21.240 Y18.180 Z-2.000 F1200
G1 X-21.240 Y18.060 Z-2.000 F1200
G1 X-21.240 Y17.940 Z-2.000 F1200
G1 X-21.240 Y17.820 Z-2.000 F1200
G1 X-21.240 Y17.700 Z-2.000 F1200
G1 X-21.240 Y17.580 Z-2.000 F1200
G1 X-21.240 Y17.460 Z-2.000 F1200
G1 X-21.240 Y17.340 Z-2.000 F1200
G1 X-21.240 Y17.220 Z-2.000 F1200
G1 X-21.240 Y17.100 Z-2.000 F1200
G1 X-21.240 Y16.980 Z-2.000 F1200
G1 X-21.240 Y16.860 Z-2.000 F1200
G1 X-21.180 Y16.800 Z-2.000 F1200
G1 X-21.060 Y16.800 Z-2.000 F1200
G1 X-20.940 Y16.800 Z-2.000 F1200
G1 X-20.820 Y16.800 Z-2.000 F1200
G1 X-20.700 Y16.800 Z-2.000 F1200
G1 X-20.580 Y16.800 Z-2.000 F1200
G1 X-20.460 Y16.800 Z-2.000 F1200
G1 X-20.340 Y16.800 Z-2.000 F1200
G1 X-20.220 Y16.800 Z-2.000 F1200
G1 X-20.100 Y16.800 Z-2.000 F1200
G1 X-19.980 Y16.800 Z-2.000 F1200
G1 X-19.860 Y16.800 Z-2.000 F1200
G1 X-19.740 Y16.800 Z-2.000 F1200
G1 X-19.620 Y16.800 Z-2.000 F1200
G1 X-19.500 Y16.800 Z-2.000 F1200
G1 X-19.380 Y16.800 Z-2.000 F1200
G1 X-19.260 Y16.800 Z-2.000 F1200
G1 X-19.140 Y16.800 Z-2.000 F1200
G1 X-19.020 Y16.800 Z-2.000 F1200
G1 X-18.900 Y16.800 Z-2.000 F1200
G1 X-18.780 Y16.800 Z-2.000 F1200
G1 X-18.660 Y16.800 Z-2.000 F1200
G1 X-18.540 Y16.800 Z-2.000 F1200
G1 X-18.420 Y16.800 Z-2.000 F1200
G1 X-18.300 Y16.800 Z-2.000 F1200
G1 X-18.180 Y16.800 Z-2.000 F1200
G1 X-18.060 Y16.800 Z-2.000 F1200
G1 X-17.940 Y16.800 Z-2.000 F1200
G1 X-17.820 Y16.800 Z-2.000 F1200
G1 X-17.700 Y16.800 Z-2.000 F1200
G1 X-17.580 Y16.800 Z-2.000 F1200
G1 X-17.460 Y16.800 Z-2.000 F1200
G1 X-17.340 Y16.800 Z-2.000 F1200
G1 X-17.220 Y16.800 Z-2.000 F1200
G1 X-17.100 Y16.800 Z-2.000 F1200
G1 X-16.980 Y16.800 Z-2.000 F1200
G1 X-16.860 Y16.800 Z-2.000 F1200
G1 X-16.740 Y16.800 Z-2.000 F1200
G1 X-16.620 Y16.800 Z-2.000 F1200
G1 X-16.500 Y16.800 Z-2.000 F1200
G1 X-16.380 Y16.800 Z-2.000 F1200
G1 X-16.260 Y16.800 Z-2.000 F1200
G1 X-16.200 Y16.740 Z-2.000 F1200
G1 X-16.140 Y16.680 Z-2.000 F1200
G1 X-16.080 Y16.620 Z-2.000 F1200
G1 X-16.080 Y16.500 Z-2.000 F1200
G1 X-16.080 Y16.380 Z-2.000 F1200
G1 X-16.080 Y16.260 Z-2.000 F1200
G1 X-16.080 Y16.140 Z-2.000 F1200
G1 X-16.080 Y16.020 Z-2.000 F1200
G1 X-16.080 Y15.900 Z-2.000 F1200
G1 X-16.080 Y15.780 Z-2.000 F1200
G1 X-16.080 Y15.660 Z-2.000 F1200
G1 X-16.080 Y15.540 Z-2.000 F1200
G1 X-16.080 Y15.420 Z-2.000 F1200
G1 X-16.080 Y15.300 Z-2.000 F1200
G1 X-16.080 Y15.180 Z-2.000 F1200
G1 X-16.080 Y15.060 Z-2.000 F1200
G1 X-16.080 Y14.940 Z-2.000 F1200
G1 X-16.080 Y14.820 Z-2.000 F1200
G1 X-16.080 Y14.700 Z-2.000 F1200
G1 X-16.080 Y14.580 Z-2.000 F1200
G1 X-16.080 Y14.460 Z-2.000 F1200
G1 X-16.080 Y14.340 Z-2.000 F1200
G1 X-16.080 Y14.220 Z-2.000 F1200
G1 X-16.080 Y14.100 Z-2.000 F1200
G1 X-16.080 Y13.980 Z-2.000 F1200
G1 X-16.080 Y13.860 Z-2.000 F1200
G1 X-16.080 Y13.740 Z-2.000 F1200
G1 X-16.080 Y13.620 Z-2.000 F1200
G1 X-16.080 Y13.500 Z-2.000 F1200
G1 X-16.080 Y13.380 Z-2.000 F1200
G1 X-16.080 Y13.260 Z-2.000 F1200
G1 X-16.080 Y13.140 Z-2.000 F1200
G1 X-16.080 Y13.020 Z-2.000 F1200
G1 X-16.080 Y12.900 Z-2.000 F1200
G1 X-16.080 Y12.780 Z-2.000 F1200
G1 X-16.080 Y12.660 Z-2.000 F1200
G1 X-16.080 Y12.540 Z-2.000 F1200
G1 X-16.080 Y12.420 Z-2.000 F1200
G1 X-16.080 Y12.300 Z-2.000 F1200
G1 X-16.080 Y12.180 Z-2.000 F1200
G1 X-16.080 Y12.060 Z-2.000 F1200
G1 X-16.080 Y11.940 Z-2.000 F1200
G1 X-16.080 Y11.820 Z-2.000 F1200
G1 X-16.080 Y11.700 Z-2.000 F1200
G1 X-16.080 Y11.580 Z-2.000 F1200
G1 X-16.080 Y11.460 Z-2.000 F1200
G1 X-16.080 Y11.340 Z-2.000 F1200
G1 X-16.080 Y11.220 Z-2.000 F1200
G1 X-16.080 Y11.100 Z-2.000 F1200
G1 X-16.080 Y10.980 Z-2.000 F1200
G1 X-16.080 Y10.860 Z-2.000 F1200
G1 X-16.080 Y10.740 Z-2.000 F1200
G1 X-16.080 Y10.620 Z-2.000 F1200
G1 X-16.080 Y10.500 Z-2.000 F1200
G1 X-16.080 Y10.380 Z-2.000 F1200
G1 X-16.080 Y10.260 Z-2.000 F1200
G1 X-16.080 Y10.140 Z-2.000 F1200
G1 X-16.080 Y10.020 Z-2.000 F1200
G1 X-16.080 Y9.900 Z-2.000 F1200
G1 X-16.080 Y9.780 Z-2.000 F1200
G1 X-16.080 Y9.660 Z-2.000 F1200
G1 X-16.080 Y9.540 Z-2.000 F1200
G1 X-16.080 Y9.420 Z-2.000 F1200
G1 X-16.080 Y9.300 Z-2.000 F1200
G1 X-16.080 Y9.180 Z-2.000 F1200
G1 X-16.080 Y9.060 Z-2.000 F1200
G1 X-16.080 Y8.940 Z-2.000 F1200
G1 X-16.080 Y8.820 Z-2.000 F1200
G1 X-16.080 Y8.700 Z-2.000 F1200
G1 X-16.080 Y8.580 Z-2.000 F1200
G1 X-16.080 Y8.460 Z-2.000 F1200
G1 X-16.080 Y8.340 Z-2.000 F1200
G1 X-16.080 Y8.220 Z-2.000 F1200
G1 X-16.080 Y8.100 Z-2.000 F1200
G1 X-16.080 Y7.980 Z-2.000 F1200
G1 X-16.080 Y7.860 Z-2.000 F1200
G1 X-16.080 Y7.740 Z-2.000 F1200
G1 X-16.080 Y7.620 Z-2.000 F1200
G1 X-16.080 Y7.500 Z-2.000 F1200
G1 X-16.080 Y7.380 Z-2.000 F1200
G1 X-16.080 Y7.260 Z-2.000 F1200
G1 X-16.080 Y7.140 Z-2.000 F1200
G1 X-16.080 Y7.020 Z-2.000 F1200
G1 X-16.080 Y6.900 Z-2.000 F1200
G1 X-16.080 Y6.780 Z-2.000 F1200
G1 X-16.080 Y6.660 Z-2.000 F1200
G1 X-16.080 Y6.540 Z-2.000 F1200
G1 X-16.080 Y6.420 Z-2.000 F1200
G1 X-16.080 Y6.300 Z-2.000 F1200
G1 X-16.080 Y6.180 Z-2.000 F1200
G1 X-16.080 Y6.060 Z-2.000 F1200
G1 X-16.080 Y5.940 Z-2.000 F1200
G1 X-16.080 Y5.820 Z-2.000 F1200
G1 X-16.080 Y5.700 Z-2.000 F1200
G1 X-16.080 Y5.580 Z-2.000 F1200
G1 X-16.080 Y5.460 Z-2.000 F1200
G1 X-16.080 Y5.340 Z-2.000 F1200
G1 X-16.080 Y5.220 Z-2.000 F1200
G1 X-16.080 Y5.100 Z-2.000 F1200
G1 X-16.080 Y4.980 Z-2.000 F1200
G1 X-16.080 Y4.860 Z-2.000 F1200
G1 X-16.080 Y4.740 Z-2.000 F1200
G1 X-16.080 Y4.620 Z-2.000 F1200
G1 X-16.080 Y4.500 Z-2.000 F1200
G1 X-16.080 Y4.380 Z-2.000 F1200
G1 X-16.080 Y4.260 Z-2.000 F1200
G1 X-16.080 Y4.140 Z-2.000 F1200
G1 X-16.080 Y4.020 Z-2.000 F1200
G1 X-16.080 Y3.900 Z-2.000 F1200
G1 X-16.080 Y3.780 Z-2.000 F1200
G1 X-16.080 Y3.660 Z-2.000 F1200
G1 X-16.080 Y3.540 Z-2.000 F1200
G1 X-16.080 Y3.420 Z-2.000 F1200
G1 X-16.080 Y3.300 Z-2.000 F1200
G1 X-16.080 Y3.180 Z-2.000 F1200
G1 X-16.080 Y3.060 Z-2.000 F1200
G1 X-16.080 Y2.940 Z-2.000 F1200
G1 X-16.080 Y2.820 Z-2.000 F1200
G1 X-16.080 Y2.700 Z-2.000 F1200
G1 X-16.080 Y2.580 Z-2.000 F1200
G1 X-16.080 Y2.460 Z-2.000 F1200
G1 X-16.080 Y2.340 Z-2.000 F1200
G1 X-16.080 Y2.220 Z-2.000 F1200
G1 X-16.080 Y2.100 Z-2.000 F1200
G1 X-16.080 Y1.980 Z-2.000 F1200
G1 X-16.080 Y1.860 Z-2.000 F1200
G1 X-16.080 Y1.740 Z-2.000 F1200
G1 X-16.080 Y1.620 Z-2.000 F1200
G1 X-16.080 Y1.500 Z-2.000 F1200
G1 X-16.080 Y1.380 Z-2.000 F1200
G1 X-16.080 Y1.260 Z-2.000 F1200
G1 X-16.080 Y1.140 Z-2.000 F1200
G1 X-16.080 Y1.020 Z-2.000 F1200
G1 X-16.080 Y0.900 Z-2.000 F1200
G1 X-16.080 Y0.780 Z-2.000 F1200
G1 X-16.080 Y0.660 Z-2.000 F1200
G1 X-16.080 Y0.540 Z-2.000 F1200
G1 X-16.080 Y0.420 Z-2.000 F1200
G1 X-16.080 Y0.300 Z-2.000 F1200
G1 X-16.080 Y0.180 Z-2.000 F1200
G1 X-16.080 Y0.060 Z-2.000 F1200
G1 X-16.080 Y-0.060 Z-2.000 F1200
G1 X-16.080 Y-0.180 Z-2.000 F1200
G1 X-16.080 Y-0.300 Z-2.000 F1200
G1 X-16.080 Y-0.420 Z-2.000 F1200
G1 X-16.080 Y-0.540 Z-2.000 F1200
G1 X-16.080 Y-0.660 Z-2.000 F1200
G1 X-16.080 Y-0.780 Z-2.000 F1200
G1 X-16.080 Y-0.900 Z-2.000 F1200
G1 X-16.080 Y-1.020 Z-2.000 F1200
G1 X-16.080 Y-1.140 Z-2.000 F1200
G1 X-16.080 Y-1.260 Z-2.000 F1200
G1 X-16.080 Y-1.380 Z-2.000 F1200
G1 X-16.080 Y-1.500 Z-2.000 F1200
G1 X-16.080 Y-1.620 Z-2.000 F1200
G1 X-16.080 Y-1.740 Z-2.000 F1200
G1 X-16.080 Y-1.860 Z-2.000 F1200
G1 X-16.080 Y-1.980 Z-2.000 F1200
G1 X-16.080 Y-2.100 Z-2.000 F1200
G1 X-16.080 Y-2.220 Z-2.000 F1200
G1 X-16.080 Y-2.340 Z-2.000 F1200
G1 X-16.080 Y-2.460 Z-2.000 F1200
G1 X-16.080 Y-2.580 Z-2.000 F1200
G1 X-16.080 Y-2.700 Z-2.000 F1200
G1 X-16.080 Y-2.820 Z-2.000 F1200
G1 X-16.080 Y-2.940 Z-2.000 F1200
G1 X-16.080 Y-3.060 Z-2.000 F1200
G1 X-16.080 Y-3.180 Z-2.000 F1200
G1 X-16.080 Y-3.300 Z-2.000 F1200
G1 X-16.080 Y-3.420 Z-2.000 F1200
G1 X-16.080 Y-3.540 Z-2.000 F1200
G1 X-16.080 Y-3.660 Z-2.000 F1200
G1 X-16.080 Y-3.780 Z-2.000 F1200
G1 X-16.080 Y-3.900 Z-2.000 F1200
G1 X-16.080 Y-4.020 Z-2.000 F1200
G1 X-16.080 Y-4.140 Z-2.000 F1200
G1 X-16.080 Y-4.260 Z-2.000 F1200
G1 X-16.080 Y-4.380 Z-2.000 F1200
G1 X-16.080 Y-4.500 Z-2.000 F1200
G1 X-16.080 Y-4.620 Z-2.000 F1200
G1 X-16.080 Y-4.740 Z-2.000 F1200
G1 X-16.080 Y-4.860 Z-2.000 F1200
G1 X-16.080 Y-4.980 Z-2.000 F1200
G1 X-16.080 Y-5.100 Z-2.000 F1200
G1 X-16.080 Y-5.220 Z-2.000 F1200
G1 X-16.080 Y-5.340 Z-2.000 F1200
G1 X-16.080 Y-5.460 Z-2.000 F1200
G1 X-16.080 Y-5.580 Z-2.000 F1200
G1 X-16.080 Y-5.700 Z-2.000 F1200
G1 X-16.080 Y-5.820 Z-2.000 F1200
G1 X-16.080 Y-5.940 Z-2.000 F1200
G1 X-16.080 Y-6.060 Z-2.000 F1200
G1 X-16.080 Y-6.180 Z-2.000 F1200
G1 X-16.080 Y-6.300 Z-2.000 F1200
G1 X-16.080 Y-6.420 Z-2.000 F1200
G1 X-16.080 Y-6.540 Z-2.000 F1200
G1 X-16.080 Y-6.660 Z-2.000 F1200
G1 X-16.080 Y-6.780 Z-2.000 F1200
G1 X-16.080 Y-6.900 Z-2.000 F1200
G1 X-16.080 Y-7.020 Z-2.000 F1200
G1 X-16.080 Y-7.140 Z-2.000 F1200
G1 X-16.080 Y-7.260 Z-2.000 F1200
G1 X-16.080 Y-7.380 Z-2.000 F1200
G1 X-16.080 Y-7.500 Z-2.000 F1200
G1 X-16.080 Y-7.620 Z-2.000 F1200
G1 X-16.080 Y-7.740 Z-2.000 F1200
G1 X-16.080 Y-7.860 Z-2.000 F1200
G1 X-16.080 Y-7.980 Z-2.000 F1200
G1 X-16.080 Y-8.100 Z-2.000 F1200
G1 X-16.080 Y-8.220 Z-2.000 F1200
G1 X-16.080 Y-8.340 Z-2.000 F1200
G1 X-16.080 Y-8.460 Z-2.000 F1200
G1 X-16.080 Y-8.580 Z-2.000 F1200
G1 X-16.080 Y-8.700 Z-2.000 F1200
G1 X-16.080 Y-8.820 Z-2.000 F1200
G1 X-16.080 Y-8.940 Z-2.000 F1200
G1 X-16.080 Y-9.060 Z-2.000 F1200
G1 X-16.080 Y-9.180 Z-2.000 F1200
G1 X-16.080 Y-9.300 Z-2.000 F1200
G1 X-16.080 Y-9.420 Z-2.000 F1200
G1 X-16.080 Y-9.540 Z-2.000 F1200
G1 X-16.080 Y-9.660 Z-2.000 F1200
G1 X-16.080 Y-9.780 Z-2.000 F1200
G1 X-16.080 Y-9.900 Z-2.000 F1200
G1 X-16.080 Y-10.020 Z-2.000 F1200
G1 X-16.080 Y-10.140 Z-2.000 F1200
G1 X-16.080 Y-10.260 Z-2.000 F1200
G1 X-16.080 Y-10.380 Z-2.000 F1200
G1 X-16.080 Y-10.500 Z-2.000 F1200
G1 X-16.080 Y-10.620 Z-2.000 F1200
G1 X-16.080 Y-10.740 Z-2.000 F1200
G1 X-16.080 Y-10.860 Z-2.000 F1200
G1 X-16.080 Y-10.980 Z-2.000 F1200
G1 X-16.080 Y-11.100 Z-2.000 F1200
G1 X-16.080 Y-11.220 Z-2.000 F1200
G1 X-16.080 Y-11.340 Z-2.000 F1200
G1 X-16.080 Y-11.460 Z-2.000 F1200
G1 X-16.080 Y-11.580 Z-2.000 F1200
G1 X-16.080 Y-11.700 Z-2.000 F1200
G1 X-16.080 Y-11.820 Z-2.000 F1200
G1 X-16.080 Y-11.940 Z-2.000 F1200
G1 X-16.080 Y-12.060 Z-2.000 F1200
G1 X-16.080 Y-12.180 Z-2.000 F1200
G1 X-16.080 Y-12.300 Z-2.000 F1200
G1 X-16.080 Y-12.420 Z-2.000 F1200
G1 X-16.080 Y-12.540 Z-2.000 F1200
G1 X-16.080 Y-12.660 Z-2.000 F1200
G1 X-16.080 Y-12.780 Z-2.000 F1200
G1 X-16.080 Y-12.900 Z-2.000 F1200
G1 X-16.080 Y-13.020 Z-2.000 F1200
G1 X-16.080 Y-13.140 Z-2.000 F1200
G1 X-16.080 Y-13.260 Z-2.000 F1200
G1 X-16.080 Y-13.380 Z-2.000 F1200
G1 X-16.080 Y-13.500 Z-2.000 F1200
G1 X-16.080 Y-13.620 Z-2.000 F1200
G1 X-16.080 Y-13.740 Z-2.000 F1200
G1 X-16.080 Y-13.860 Z-2.000 F1200
G1 X-16.080 Y-13.980 Z-2.000 F1200
G1 X-16.080 Y-14.100 Z-2.000 F1200
G1 X-16.080 Y-14.220 Z-2.000 F1200
G1 X-16.080 Y-14.340 Z-2.000 F1200
G1 X-16.080 Y-14.460 Z-2.000 F1200
G1 X-16.080 Y-14.580 Z-2.000 F1200
G1 X-16.080 Y-14.700 Z-2.000 F1200
G1 X-16.080 Y-14.820 Z-2.000 F1200
G1 X-16.080 Y-14.940 Z-2.000 F1200
G1 X-16.080 Y-15.060 Z-2.000 F1200
G1 X-16.080 Y-15.180 Z-2.000 F1200
G1 X-16.080 Y-15.300 Z-2.000 F1200
G1 X-16.080 Y-15.420 Z-2.000 F1200
G1 X-16.080 Y-15.540 Z-2.000 F1200
G1 X-16.080 Y-15.660 Z-2.000 F1200
G1 X-16.080 Y-15.780 Z-2.000 F1200
G1 X-16.080 Y-15.900 Z-2.000 F1200
G1 X-16.080 Y-16.020 Z-2.000 F1200
G1 X-16.080 Y-16.140 Z-2.000 F1200
G1 X-16.080 Y-16.260 Z-2.000 F1200
G1 X-16.080 Y-16.380 Z-2.000 F1200
G1 X-16.080 Y-16.500 Z-2.000 F1200
G1 X-16.140 Y-16.560 Z-2.000 F1200
G1 X-16.200 Y-16.620 Z-2.000 F1200
G1 X-16.260 Y-16.680 Z-2.000 F1200
G1 X-16.380 Y-16.680 Z-2.000 F1200
G1 X-16.500 Y-16.680 Z-2.000 F1200
G1 X-16.620 Y-16.680 Z-2.000 F1200
G1 X-16.740 Y-16.680 Z-2.000 F1200
G1 X-16.860 Y-16.680 Z-2.000 F1200
G1 X-16.980 Y-16.680 Z-2.000 F1200
G1 X-17.100 Y-16.680 Z-2.000 F1200
G1 X-17.220 Y-16.680 Z-2.000 F1200
G1 X-17.340 Y-16.680 Z-2.000 F1200
G1 X-17.460 Y-16.680 Z-2.000 F1200
G1 X-17.580 Y-16.680 Z-2.000 F1200
G1 X-17.700 Y-16.680 Z-2.000 F1200
G1 X-17.820 Y-16.680 Z-2.000 F1200
G1 X-17.940 Y-16.680 Z-2.000 F1200
G1 X-18.060 Y-16.680 Z-2.000 F1200
G1 X-18.180 Y-16.680 Z-2.000 F1200
G1 X-18.300 Y-16.680 Z-2.000 F1200
G1 X-18.420 Y-16.680 Z-2.000 F1200
G1 X-18.540 Y-16.680 Z-2.000 F1200
G1 X-18.660 Y-16.680 Z-2.000 F1200
G1 X-18.780 Y-16.680 Z-2.000 F1200
G1 X-18.900 Y-16.680 Z-2.000 F1200
G1 X-19.020 Y-16.680 Z-2.000 F1200
G1 X-19.140 Y-16.680 Z-2.000 F1200
G1 X-19.260 Y-16.680 Z-2.000 F1200
G1 X-19.380 Y-16.680 Z-2.000 F1200
G1 X-19.500 Y-16.680 Z-2.000 F1200
G1 X-19.620 Y-16.680 Z-2.000 F1200
G1 X-19.740 Y-16.680 Z-2.000 F1200
G1 X-19.860 Y-16.680 Z-2.000 F1200
G1 X-19.980 Y-16.680 Z-2.000 F1200
G1 X-20.100 Y-16.680 Z-2.000 F1200
G1 X-20.220 Y-16.680 Z-2.000 F1200
G1 X-20.340 Y-16.680 Z-2.000 F1200
G1 X-20.460 Y-16.680 Z-2.000 F1200
G1 X-20.580 Y-16.680 Z-2.000 F1200
G1 X-20.700 Y-16.680 Z-2.000 F1200
G1 X-20.820 Y-16.680 Z-2.000 F1200
G1 X-20.940 Y-16.680 Z-2.000 F1200
G1 X-21.060 Y-16.680 Z-2.000 F1200
G1 X-21.180 Y-16.680 Z-2.000 F1200
G1 X-21.240 Y-16.740 Z-2.000 F1200
G1 X-21.240 Y-16.860 Z-2.000 F1200
G1 X-21.240 Y-16.980 Z-2.000 F1200
G1 X-21.240 Y-17.100 Z-2.000 F1200
G1 X-21.240 Y-17.220 Z-2.000 F1200
G1 X-21.240 Y-17.340 Z-2.000 F1200
G1 X-21.240 Y-17.460 Z-2.000 F1200
G1 X-21.240 Y-17.580 Z-2.000 F1200
G1 X-21.240 Y-17.700 Z-2.000 F1200
G1 X-21.240 Y-17.820 Z-2.000 F1200
G1 X-21.240 Y-17.940 Z-2.000 F1200
G1 X-21.240 Y-18.060 Z-2.000 F1200
G1 X-21.240 Y-18.180 Z-2.000 F1200
G1 X-21.240 Y-18.300 Z-2.000 F1200
G1 X-21.240 Y-18.420 Z-2.000 F1200
G1 X-21.240 Y-18.540 Z-2.000 F1200
G1 X-21.240 Y-18.660 Z-2.000 F1200
G1 X-21.240 Y-18.780 Z-2.000 F1200
G1 X-21.240 Y-18.900 Z-2.000 F1200
G1 X-21.240 Y-19.020 Z-2.000 F1200
G1 X-21.240 Y-19.140 Z-2.000 F1200
G1 X-21.240 Y-19.260 Z-2.000 F1200
G1 X-21.240 Y-19.380 Z-2.000 F1200
G1 X-21.240 Y-19.500 Z-2.000 F1200
G1 X-21.240 Y-19.620 Z-2.000 F1200
G1 X-21.240 Y-19.740 Z-2.000 F1200
G1 X-21.240 Y-19.860 Z-2.000 F1200
G0 Z2.000
G0 X-5.760 Y16.740
G1 X-5.760 Y16.740 Z2.000 F200
G1 X-5.700 Y16.800 Z1.000 F200
G1 X-5.580 Y16.800 Z0.000 F200
G1 X-5.460 Y16.800 Z-1.000 F200
G1 X-5.340 Y16.800 Z-2.000 F200
G1 X-5.220 Y16.800 Z-2.000 F1200
G1 X-5.100 Y16.800 Z-2.000 F1200
G1 X-4.980 Y16.800 Z-2.000 F1200
G1 X-4.860 Y16.800 Z-2.000 F1200
G1 X-4.740 Y16.800 Z-2.000 F1200
G1 X-4.620 Y16.800 Z-2.000 F1200
G1 X-4.500 Y16.800 Z-2.000 F1200
G1 X-4.380 Y16.800 Z-2.000 F1200
G1 X-4.260 Y16.800 Z-2.000 F1200
G1 X-4.140 Y16.800 Z-2.000 F1200
G1 X-4.020 Y16.800 Z-2.000 F1200
G1 X-3.900 Y16.800 Z-2.000 F1200
G1 X-3.780 Y16.800 Z-2.000 F1200
G1 X-3.660 Y16.800 Z-2.000 F1200
G1 X-3.540 Y16.800 Z-2.000 F1200
G1 X-3.420 Y16.800 Z-2.000 F1200
G1 X-3.300 Y16.800 Z-2.000 F1200
G1 X-3.180 Y16.800 Z-2.000 F1200
G1 X-3.060 Y16.800 Z-2.000 F1200
G1 X-2.940 Y16.800 Z-2.000 F1200
G1 X-2.820 Y16.800 Z-2.000 F1200
G1 X-2.700 Y16.800 Z-2.000 F1200
G1 X-2.580 Y16.800 Z-2.000 F1200
G1 X-2.460 Y16.800 Z-2.000 F1200
G1 X-2.340 Y16.800 Z-2.000 F1200
G1 X-2.220 Y16.800 Z-2.000 F1200
G1 X-2.100 Y16.800 Z-2.000 F1200
G1 X-1.980 Y16.800 Z-2.000 F1200
G1 X-1.860 Y16.800 Z-2.000 F1200
G1 X-1.740 Y16.800 Z-2.000 F1200
G1 X-1.620 Y16.800 Z-2.000 F1200
G1 X-1.560 Y16.740 Z-2.000 F1200
G1 X-1.500 Y16.680 Z-2.000 F1200
G1 X-1.380 Y16.680 Z-2.000 F1200
G1 X-1.260 Y16.680 Z-2.000 F1200
G1 X-1.140 Y16.680 Z-2.000 F1200
G1 X-1.020 Y16.680 Z-2.000 F1200
G1 X-0.900 Y16.680 Z-2.000 F1200
G1 X-0.780 Y16.680 Z-2.000 F1200
G1 X-0.660 Y16.680 Z-2.000 F1200
G1 X-0.540 Y16.680 Z-2.000 F1200
G1 X-0.420 Y16.680 Z-2.000 F1200
G1 X-0.300 Y16.680 Z-2.000 F1200
G1 X-0.180 Y16.680 Z-2.000 F1200
G1 X-0.120 Y16.620 Z-2.000 F1200
G1 X-0.060 Y16.560 Z-2.000 F1200
G1 X0.060 Y16.560 Z-2.000 F1200
G1 X0.180 Y16.560 Z-2.000 F1200
G1 X0.300 Y16.560 Z-2.000 F1200
G1 X0.420 Y16.560 Z-2.000 F1200
G1 X0.540 Y16.560 Z-2.000 F1200
G1 X0.660 Y16.560 Z-2.000 F1200
G1 X0.720 Y16.500 Z-2.000 F1200
G1 X0.780 Y16.440 Z-2.000 F1200
G1 X0.900 Y16.440 Z-2.000 F1200
G1 X1.020 Y16.440 Z-2.000 F1200
G1 X1.140 Y16.440 Z-2.000 F1200
G1 X1.260 Y16.440 Z-2.000 F1200
G1 X1.320 Y16.380 Z-2.000 F1200
G1 X1.380 Y16.320 Z-2.000 F1200
G1 X1.500 Y16.320 Z-2.000 F1200
G1 X1.620 Y16.320 Z-2.000 F1200
G1 X1.740 Y16.320 Z-2.000 F1200
G1 X1.800 Y16.260 Z-2.000 F1200
G1 X1.860 Y16.200 Z-2.000 F1200
G1 X1.980 Y16.200 Z-2.000 F1200
G1 X2.100 Y16.200 Z-2.000 F1200
G1 X2.220 Y16.200 Z-2.000 F1200
G1 X2.280 Y16.140 Z-2.000 F1200
G1 X2.340 Y16.080 Z-2.000 F1200
G1 X2.460 Y16.080 Z-2.000 F1200
G1 X2.580 Y16.080 Z-2.000 F1200
G1 X2.640 Y16.020 Z-2.000 F1200
G1 X2.700 Y15.960 Z-2.000 F1200
G1 X2.820 Y15.960 Z-2.000 F1200
G1 X2.940 Y15.960 Z-2.000 F1200
G1 X3.000 Y15.900 Z-2.000 F1200
G1 X3.060 Y15.840 Z-2.000 F1200
G1 X3.180 Y15.840 Z-2.000 F1200
G1 X3.240 Y15.780 Z-2.000 F1200
G1 X3.300 Y15.720 Z-2.000 F1200
G1 X3.420 Y15.720 Z-2.000 F1200
G1 X3.480 Y15.660 Z-2.000 F1200
G1 X3.540 Y15.600 Z-2.000 F1200
G1 X3.660 Y15.600 Z-2.000 F1200
G1 X3.720 Y15.540 Z-2.000 F1200
G1 X3.780 Y15.480 Z-2.000 F1200
G1 X3.900 Y15.480 Z-2.000 F1200
G1 X3.960 Y15.420 Z-2.000 F1200
G1 X4.020 Y15.360 Z-2.000 F1200
G1 X4.140 Y15.360 Z-2.000 F1200
G1 X4.200 Y15.300 Z-2.000 F1200
G1 X4.260 Y15.240 Z-2.000 F1200
G1 X4.380 Y15.240 Z-2.000 F1200
G1 X4.440 Y15.180 Z-2.000 F1200
G1 X4.500 Y15.120 Z-2.000 F1200
G1 X4.560 Y15.060 Z-2.000 F1200
G1 X4.620 Y15.000 Z-2.000 F1200
G1 X4.740 Y15.000 Z-2.000 F1200
G1 X4.800 Y14.940 Z-2.000 F1200
G1 X4.860 Y14.880 Z-2.000 F1200
G1 X4.920 Y14.820 Z-2.000 F1200
G1 X4.980 Y14.760 Z-2.000 F1200
G1 X5.100 Y14.760 Z-2.000 F1200
G1 X5.160 Y14.700 Z-2.000 F1200
G1 X5.220 Y14.640 Z-2.000 F1200
G1 X5.280 Y14.580 Z-2.000 F1200
G1 X5.340 Y14.520 Z-2.000 F1200
G1 X5.400 Y14.460 Z-2.000 F1200
G1 X5.460 Y14.400 Z-2.000 F1200
G1 X5.520 Y14.340 Z-2.000 F1200
G1 X5.580 Y14.280 Z-2.000 F1200
G1 X5.700 Y14.280 Z-2.000 F1200
G1 X5.760 Y14.220 Z-2.000 F1200
G1 X5.820 Y14.160 Z-2.000 F1200
G1 X5.880 Y14.100 Z-2.000 F1200
G1 X5.940 Y14.040 Z-2.000 F1200
G1 X6.000 Y13.980 Z-2.000 F1200
G1 X6.060 Y13.920 Z-2.000 F1200
G1 X6.120 Y13.860 Z-2.000 F1200
G1 X6.180 Y13.800 Z-2.000 F1200
G1 X6.240 Y13.740 Z-2.000 F1200
G1 X6.300 Y13.680 Z-2.000 F1200
G1 X6.360 Y13.620 Z-2.000 F1200
G1 X6.420 Y13.560 Z-2.000 F1200
G1 X6.480 Y13.500 Z-2.000 F1200
G1 X6.480 Y13.380 Z-2.000 F1200
G1 X6.540 Y13.320 Z-2.000 F1200
G1 X6.600 Y13.260 Z-2.000 F1200
G1 X6.660 Y13.200 Z-2.000 F1200
G1 X6.720 Y13.140 Z-2.000 F1200
G1 X6.780 Y13.080 Z-2.000 F1200
G1 X6.840 Y13.020 Z-2.000 F1200
G1 X6.900 Y12.960 Z-2.000 F1200
G1 X6.960 Y12.900 Z-2.000 F1200
G1 X6.960 Y12.780 Z-2.000 F1200
G1 X7.020 Y12.720 Z-2.000 F1200
G1 X7.080 Y12.660 Z-2.000 F1200
G1 X7.140 Y12.600 Z-2.000 F1200
G1 X7.200 Y12.540 Z-2.000 F1200
G1 X7.200 Y12.420 Z-2.000 F1200
G1 X7.260 Y12.360 Z-2.000 F1200
G1 X7.320 Y12.300 Z-2.000 F1200
G1 X7.380 Y12.240 Z-2.000 F1200
G1 X7.440 Y12.180 Z-2.000 F1200
G1 X7.440 Y12.060 Z-2.000 F1200
G1 X7.500 Y12.000 Z-2.000 F1200
G1 X7.560 Y11.940 Z-2.000 F1200
G1 X7.620 Y11.880 Z-2.000 F1200
G1 X7.680 Y11.820 Z-2.000 F1200
G1 X7.680 Y11.700 Z-2.000 F1200
G1 X7.740 Y11.640 Z-2.000 F1200
G1 X7.800 Y11.580 Z-2.000 F1200
G1 X7.800 Y11.460 Z-2.000 F1200
G1 X7.860 Y11.400 Z-2.000 F1200
G1 X7.920 Y11.340 Z-2.000 F1200
G1 X7.920 Y11.220 Z-2.000 F1200
G1 X7.980 Y11.160 Z-2.000 F1200
G1 X8.040 Y11.100 Z-2.000 F1200
G1 X8.040 Y10.980 Z-2.000 F1200
G1 X8.040 Y10.860 Z-2.000 F1200
G1 X8.100 Y10.800 Z-2.000 F1200
G1 X8.160 Y10.740 Z-2.000 F1200
G1 X8.160 Y10.620 Z-2.000 F1200
G1 X8.220 Y10.560 Z-2.000 F1200
G1 X8.280 Y10.500 Z-2.000 F1200
G1 X8.280 Y10.380 Z-2.000 F1200
G1 X8.340 Y10.320 Z-2.000 F1200
G1 X8.400 Y10.260 Z-2.000 F1200
G1 X8.400 Y10.140 Z-2.000 F1200
G1 X8.460 Y10.080 Z-2.000 F1200
G1 X8.520 Y10.020 Z-2.000 F1200
G1 X8.520 Y9.900 Z-2.000 F1200
G1 X8.520 Y9.780 Z-2.000 F1200
G1 X8.580 Y9.720 Z-2.000 F1200
G1 X8.640 Y9.660 Z-2.000 F1200
G1 X8.640 Y9.540 Z-2.000 F1200
G1 X8.640 Y9.420 Z-2.000 F1200
G1 X8.700 Y9.360 Z-2.000 F1200
G1 X8.760 Y9.300 Z-2.000 F1200
G1 X8.760 Y9.180 Z-2.000 F1200
G1 X8.760 Y9.060 Z-2.000 F1200
G1 X8.820 Y9.000 Z-2.000 F1200
G1 X8.880 Y8.940 Z-2.000 F1200
G1 X8.880 Y8.820 Z-2.000 F1200
G1 X8.880 Y8.700 Z-2.000 F1200
G1 X8.880 Y8.580 Z-2.000 F1200
G1 X8.940 Y8.520 Z-2.000 F1200
G1 X9.000 Y8.460 Z-2.000 F1200
G1 X9.000 Y8.340 Z-2.000 F1200
G1 X9.000 Y8.220 Z-2.000 F1200
G1 X9.000 Y8.100 Z-2.000 F1200
G1 X9.060 Y8.040 Z-2.000 F1200
G1 X9.120 Y7.980 Z-2.000 F1200
G1 X9.120 Y7.860 Z-2.000 F1200
G1 X9.120 Y7.740 Z-2.000 F1200
G1 X9.120 Y7.620 Z-2.000 F1200
G1 X9.180 Y7.560 Z-2.000 F1200
G1 X9.240 Y7.500 Z-2.000 F1200
G1 X9.240 Y7.380 Z-2.000 F1200
G1 X9.240 Y7.260 Z-2.000 F1200
G1 X9.240 Y7.140 Z-2.000 F1200
G1 X9.240 Y7.020 Z-2.000 F1200
G1 X9.300 Y6.960 Z-2.000 F1200
G1 X9.360 Y6.900 Z-2.000 F1200
G1 X9.360 Y6.780 Z-2.000 F1200
G1 X9.360 Y6.660 Z-2.000 F1200
G1 X9.360 Y6.540 Z-2.000 F1200
G1 X9.360 Y6.420 Z-2.000 F1200
G1 X9.420 Y6.360 Z-2.000 F1200
G1 X9.480 Y6.300 Z-2.000 F1200
G1 X9.480 Y6.180 Z-2.000 F1200
G1 X9.480 Y6.060 Z-2.000 F1200
G1 X9.480 Y5.940 Z-2.000 F1200
G1 X9.480 Y5.820 Z-2.000 F1200
G1 X9.480 Y5.700 Z-2.000 F1200
G1 X9.540 Y5.640 Z-2.000 F1200
G1 X9.600 Y5.580 Z-2.000 F1200
G1 X9.600 Y5.460 Z-2.000 F1200
G1 X9.600 Y5.340 Z-2.000 F1200
G1 X9.600 Y5.220 Z-2.000 F1200
G1 X9.600 Y5.100 Z-2.000 F1200
G1 X9.600 Y4.980 Z-2.000 F1200
G1 X9.600 Y4.860 Z-2.000 F1200
G1 X9.660 Y4.800 Z-2.000 F1200
G1 X9.720 Y4.740 Z-2.000 F1200
G1 X9.720 Y4.620 Z-2.000 F1200
G1 X9.720 Y4.500 Z-2.000 F1200
G1 X9.720 Y4.380 Z-2.000 F1200
G1 X9.720 Y4.260 Z-2.000 F1200
G1 X9.720 Y4.140 Z-2.000 F1200
G1 X9.720 Y4.020 Z-2.000 F1200
G1 X9.720 Y3.900 Z-2.000 F1200
G1 X9.720 Y3.780 Z-2.000 F1200
G1 X9.720 Y3.660 Z-2.000 F1200
G1 X9.720 Y3.540 Z-2.000 F1200
G1 X9.780 Y3.480 Z-2.000 F1200
G1 X9.840 Y3.420 Z-2.000 F1200
G1 X9.840 Y3.300 Z-2.000 F1200
G1 X9.840 Y3.180 Z-2.000 F1200
G1 X9.840 Y3.060 Z-2.000 F1200
G1 X9.840 Y2.940 Z-2.000 F1200
G1 X9.840 Y2.820 Z-2.000 F1200
G1 X9.840 Y2.700 Z-2.000 F1200
G1 X9.840 Y2.580 Z-2.000 F1200
G1 X9.840 Y2.460 Z-2.000 F1200
G1 X9.840 Y2.340 Z-2.000 F1200
G1 X9.840 Y2.220 Z-2.000 F1200
G1 X9.840 Y2.100 Z-2.000 F1200
G1 X9.840 Y1.980 Z-2.000 F1200
G1 X9.840 Y1.860 Z-2.000 F1200
G1 X9.840 Y1.740 Z-2.000 F1200
G1 X9.840 Y1.620 Z-2.000 F1200
G1 X9.840 Y1.500 Z-2.000 F1200
G1 X9.840 Y1.380 Z-2.000 F1200
G1 X9.840 Y1.260 Z-2.000 F1200
G1 X9.840 Y1.140 Z-2.000 F1200
G1 X9.840 Y1.020 Z-2.000 F1200
G1 X9.840 Y0.900 Z-2.000 F1200
G1 X9.840 Y0.780 Z-2.000 F1200
G1 X9.840 Y0.660 Z-2.000 F1200
G1 X9.840 Y0.540 Z-2.000 F1200
G1 X9.840 Y0.420 Z-2.000 F1200
G1 X9.840 Y0.300 Z-2.000 F1200
G1 X9.840 Y0.180 Z-2.000 F1200
G1 X9.840 Y0.060 Z-2.000 F1200
G1 X9.840 Y-0.060 Z-2.000 F1200
G1 X9.840 Y-0.180 Z-2.000 F1200
G1 X9.840 Y-0.300 Z-2.000 F1200
G1 X9.840 Y-0.420 Z-2.000 F1200
G1 X9.840 Y-0.540 Z-2.000 F1200
G1 X9.840 Y-0.660 Z-2.000 F1200
G1 X9.840 Y-0.780 Z-2.000 F1200
G1 X9.840 Y-0.900 Z-2.000 F1200
G1 X9.840 Y-1.020 Z-2.000 F1200
G1 X9.840 Y-1.140 Z-2.000 F1200
G1 X9.840 Y-1.260 Z-2.000 F1200
G1 X9.840 Y-1.380 Z-2.000 F1200
G1 X9.840 Y-1.500 Z-2.000 F1200
G1 X9.840 Y-1.620 Z-2.000 F1200
G1 X9.840 Y-1.740 Z-2.000 F1200
G1 X9.840 Y-1.860 Z-2.000 F1200
G1 X9.840 Y-1.980 Z-2.000 F1200
G1 X9.840 Y-2.100 Z-2.000 F1200
G1 X9.840 Y-2.220 Z-2.000 F1200
G1 X9.840 Y-2.340 Z-2.000 F1200
G1 X9.840 Y-2.460 Z-2.000 F1200
G1 X9.840 Y-2.580 Z-2.000 F1200
G1 X9.840 Y-2.700 Z-2.000 F1200
G1 X9.840 Y-2.820 Z-2.000 F1200
G1 X9.840 Y-2.940 Z-2.000 F1200
G1 X9.840 Y-3.060 Z-2.000 F1200
G1 X9.840 Y-3.180 Z-2.000 F1200
G1 X9.780 Y-3.240 Z-2.000 F1200
G1 X9.720 Y-3.300 Z-2.000 F1200
G1 X9.720 Y-3.420 Z-2.000 F1200
G1 X9.720 Y-3.540 Z-2.000 F1200
G1 X9.720 Y-3.660 Z-2.000 F1200
G1 X9.720 Y-3.780 Z-2.000 F1200
G1 X9.720 Y-3.900 Z-2.000 F1200
G1 X9.720 Y-4.020 Z-2.000 F1200
G1 X9.720 Y-4.140 Z-2.000 F1200
G1 X9.720 Y-4.260 Z-2.000 F1200
G1 X9.720 Y-4.380 Z-2.000 F1200
G1 X9.720 Y-4.500 Z-2.000 F1200
G1 X9.660 Y-4.560 Z-2.000 F1200
G1 X9.600 Y-4.620 Z-2.000 F1200
G1 X9.600 Y-4.740 Z-2.000 F1200
G1 X9.600 Y-4.860 Z-2.000 F1200
G1 X9.600 Y-4.980 Z-2.000 F1200
G1 X9.600 Y-5.100 Z-2.000 F1200
G1 X9.600 Y-5.220 Z-2.000 F1200
G1 X9.600 Y-5.340 Z-2.000 F1200
G1 X9.600 Y-5.460 Z-2.000 F1200
G1 X9.540 Y-5.520 Z-2.000 F1200
G1 X9.480 Y-5.580 Z-2.000 F1200
G1 X9.480 Y-5.700 Z-2.000 F1200
G1 X9.480 Y-5.820 Z-2.000 F1200
G1 X9.480 Y-5.940 Z-2.000 F1200
G1 X9.480 Y-6.060 Z-2.000 F1200
G1 X9.480 Y-6.180 Z-2.000 F1200
G1 X9.420 Y-6.240 Z-2.000 F1200
G1 X9.360 Y-6.300 Z-2.000 F1200
G1 X9.360 Y-6.420 Z-2.000 F1200
G1 X9.360 Y-6.540 Z-2.000 F1200
G1 X9.360 Y-6.660 Z-2.000 F1200
G1 X9.360 Y-6.780 Z-2.000 F1200
G1 X9.300 Y-6.840 Z-2.000 F1200
G1 X9.240 Y-6.900 Z-2.000 F1200
G1 X9.240 Y-7.020 Z-2.000 F1200
G1 X9.240 Y-7.140 Z-2.000 F1200
G1 X9.240 Y-7.260 Z-2.000 F1200
G1 X9.180 Y-7.320 Z-2.000 F1200
G1 X9.120 Y-7.380 Z-2.000 F1200
G1 X9.120 Y-7.500 Z-2.000 F1200
G1 X9.120 Y-7.620 Z-2.000 F1200
G1 X9.120 Y-7.740 Z-2.000 F1200
G1 X9.120 Y-7.860 Z-2.000 F1200
G1 X9.060 Y-7.920 Z-2.000 F1200
G1 X9.000 Y-7.980 Z-2.000 F1200
G1 X9.000 Y-8.100 Z-2.000 F1200
G1 X9.000 Y-8.220 Z-2.000 F1200
G1 X9.000 Y-8.340 Z-2.000 F1200
G1 X8.940 Y-8.400 Z-2.000 F1200
G1 X8.880 Y-8.460 Z-2.000 F1200
G1 X8.880 Y-8.580 Z-2.000 F1200
G1 X8.880 Y-8.700 Z-2.000 F1200
G1 X8.820 Y-8.760 Z-2.000 F1200
G1 X8.760 Y-8.820 Z-2.000 F1200
G1 X8.760 Y-8.940 Z-2.000 F1200
G1 X8.760 Y-9.060 Z-2.000 F1200
G1 X8.760 Y-9.180 Z-2.000 F1200
G1 X8.700 Y-9.240 Z-2.000 F1200
G1 X8.640 Y-9.300 Z-2.000 F1200
G1 X8.640 Y-9.420 Z-2.000 F1200
G1 X8.640 Y-9.540 Z-2.000 F1200
G1 X8.580 Y-9.600 Z-2.000 F1200
G1 X8.520 Y-9.660 Z-2.000 F1200
G1 X8.520 Y-9.780 Z-2.000 F1200
G1 X8.460 Y-9.840 Z-2.000 F1200
G1 X8.400 Y-9.900 Z-2.000 F1200
G1 X8.400 Y-10.020 Z-2.000 F1200
G1 X8.400 Y-10.140 Z-2.000 F1200
G1 X8.340 Y-10.200 Z-2.000 F1200
G1 X8.280 Y-10.260 Z-2.000 F1200
G1 X8.280 Y-10.380 Z-2.000 F1200
G1 X8.220 Y-10.440 Z-2.000 F1200
G1 X8.160 Y-10.500 Z-2.000 F1200
G1 X8.160 Y-10.620 Z-2.000 F1200
G1 X8.100 Y-10.680 Z-2.000 F1200
G1 X8.040 Y-10.740 Z-2.000 F1200
G1 X8.040 Y-10.860 Z-2.000 F1200
G1 X7.980 Y-10.920 Z-2.000 F1200
G1 X7.920 Y-10.980 Z-2.000 F1200
G1 X7.920 Y-11.100 Z-2.000 F1200
G1 X7.860 Y-11.160 Z-2.000 F1200
G1 X7.800 Y-11.220 Z-2.000 F1200
G1 X7.800 Y-11.340 Z-2.000 F1200
G1 X7.800 Y-11.460 Z-2.000 F1200
G1 X7.740 Y-11.520 Z-2.000 F1200
G1 X7.680 Y-11.580 Z-2.000 F1200
G1 X7.620 Y-11.640 Z-2.000 F1200
G1 X7.560 Y-11.700 Z-2.000 F1200
G1 X7.560 Y-11.820 Z-2.000 F1200
G1 X7.500 Y-11.880 Z-2.000 F1200
G1 X7.440 Y-11.940 Z-2.000 F1200
G1 X7.440 Y-12.060 Z-2.000 F1200
G1 X7.380 Y-12.120 Z-2.000 F1200
G1 X7.320 Y-12.180 Z-2.000 F1200
G1 X7.260 Y-12.240 Z-2.000 F1200
G1 X7.200 Y-12.300 Z-2.000 F1200
G1 X7.140 Y-12.360 Z-2.000 F1200
G1 X7.080 Y-12.420 Z-2.000 F1200
G1 X7.080 Y-12.540 Z-2.000 F1200
G1 X7.020 Y-12.600 Z-2.000 F1200
G1 X6.960 Y-12.660 Z-2.000 F1200
G1 X6.900 Y-12.720 Z-2.000 F1200
G1 X6.840 Y-12.780 Z-2.000 F1200
G1 X6.840 Y-12.900 Z-2.000 F1200
G1 X6.780 Y-12.960 Z-2.000 F1200
G1 X6.720 Y-13.020 Z-2.000 F1200
G1 X6.660 Y-13.080 Z-2.000 F1200
G1 X6.600 Y-13.140 Z-2.000 F1200
G1 X6.540 Y-13.200 Z-2.000 F1200
G1 X6.480 Y-13.260 Z-2.000 F1200
G1 X6.420 Y-13.320 Z-2.000 F1200
G1 X6.360 Y-13.380 Z-2.000 F1200
G1 X6.300 Y-13.440 Z-2.000 F1200
G1 X6.240 Y-13.500 Z-2.000 F1200
G1 X6.180 Y-13.560 Z-2.000 F1200
G1 X6.120 Y-13.620 Z-2.000 F1200
G1 X6.120 Y-13.740 Z-2.000 F1200
G1 X6.060 Y-13.800 Z-2.000 F1200
G1 X6.000 Y-13.860 Z-2.000 F1200
G1 X5.940 Y-13.920 Z-2.000 F1200
G1 X5.880 Y-13.980 Z-2.000 F1200
G1 X5.820 Y-14.040 Z-2.000 F1200
G1 X5.700 Y-14.040 Z-2.000 F1200
G1 X5.640 Y-14.100 Z-2.000 F1200
G1 X5.580 Y-14.160 Z-2.000 F1200
G1 X5.520 Y-14.220 Z-2.000 F1200
G1 X5.460 Y-14.280 Z-2.000 F1200
G1 X5.400 Y-14.340 Z-2.000 F1200
G1 X5.340 Y-14.400 Z-2.000 F1200
G1 X5.280 Y-14.460 Z-2.000 F1200
G1 X5.220 Y-14.520 Z-2.000 F1200
G1 X5.100 Y-14.520 Z-2.000 F1200
G1 X5.040 Y-14.580 Z-2.000 F1200
G1 X4.980 Y-14.640 Z-2.000 F1200
G1 X4.920 Y-14.700 Z-2.000 F1200
G1 X4.860 Y-14.760 Z-2.000 F1200
G1 X4.800 Y-14.820 Z-2.000 F1200
G1 X4.740 Y-14.880 Z-2.000 F1200
G1 X4.620 Y-14.880 Z-2.000 F1200
G1 X4.560 Y-14.940 Z-2.000 F1200
G1 X4.500 Y-15.000 Z-2.000 F1200
G1 X4.380 Y-15.000 Z-2.000 F1200
G1 X4.320 Y-15.060 Z-2.000 F1200
G1 X4.260 Y-15.120 Z-2.000 F1200
G1 X4.200 Y-15.180 Z-2.000 F1200
G1 X4.140 Y-15.240 Z-2.000 F1200
G1 X4.020 Y-15.240 Z-2.000 F1200
G1 X3.960 Y-15.300 Z-2.000 F1200
G1 X3.900 Y-15.360 Z-2.000 F1200
G1 X3.780 Y-15.360 Z-2.000 F1200
G1 X3.720 Y-15.420 Z-2.000 F1200
G1 X3.660 Y-15.480 Z-2.000 F1200
G1 X3.540 Y-15.480 Z-2.000 F1200
G1 X3.480 Y-15.540 Z-2.000 F1200
G1 X3.420 Y-15.600 Z-2.000 F1200
G1 X3.300 Y-15.600 Z-2.000 F1200
G1 X3.240 Y-15.660 Z-2.000 F1200
G1 X3.180 Y-15.720 Z-2.000 F1200
G1 X3.060 Y-15.720 Z-2.000 F1200
G1 X2.940 Y-15.720 Z-2.000 F1200
G1 X2.880 Y-15.780 Z-2.000 F1200
G1 X2.820 Y-15.840 Z-2.000 F1200
G1 X2.700 Y-15.840 Z-2.000 F1200
G1 X2.640 Y-15.900 Z-2.000 F1200
G1 X2.580 Y-15.960 Z-2.000 F1200
G1 X2.460 Y-15.960 Z-2.000 F1200
G1 X2.340 Y-15.960 Z-2.000 F1200
G1 X2.280 Y-16.020 Z-2.000 F1200
G1 X2.220 Y-16.080 Z-2.000 F1200
G1 X2.100 Y-16.080 Z-2.000 F1200
G1 X1.980 Y-16.080 Z-2.000 F1200
G1 X1.860 Y-16.080 Z-2.000 F1200
G1 X1.800 Y-16.140 Z-2.000 F1200
G1 X1.740 Y-16.200 Z-2.000 F1200
G1 X1.620 Y-16.200 Z-2.000 F1200
G1 X1.500 Y-16.200 Z-2.000 F1200
G1 X1.380 Y-16.200 Z-2.000 F1200
G1 X1.320 Y-16.260 Z-2.000 F1200
G1 X1.260 Y-16.320 Z-2.000 F1200
G1 X1.140 Y-16.320 Z-2.000 F1200
G1 X1.020 Y-16.320 Z-2.000 F1200
G1 X0.900 Y-16.320 Z-2.000 F1200
G1 X0.780 Y-16.320 Z-2.000 F1200
G1 X0.720 Y-16.380 Z-2.000 F1200
G1 X0.660 Y-16.440 Z-2.000 F1200
G1 X0.540 Y-16.440 Z-2.000 F1200
G1 X0.420 Y-16.440 Z-2.000 F1200
G1 X0.300 Y-16.440 Z-2.000 F1200
G1 X0.180 Y-16.440 Z-2.000 F1200
G1 X0.060 Y-16.440 Z-2.000 F1200
G1 X-0.060 Y-16.440 Z-2.000 F1200
G1 X-0.120 Y-16.500 Z-2.000 F1200
G1 X-0.180 Y-16.560 Z-2.000 F1200
G1 X-0.300 Y-16.560 Z-2.000 F1200
G1 X-0.420 Y-16.560 Z-2.000 F1200
G1 X-0.540 Y-16.560 Z-2.000 F1200
G1 X-0.660 Y-16.560 Z-2.000 F1200
G1 X-0.780 Y-16.560 Z-2.000 F1200
G1 X-0.900 Y-16.560 Z-2.000 F1200
G1 X-1.020 Y-16.560 Z-2.000 F1200
G1 X-1.140 Y-16.560 Z-2.000 F1200
G1 X-1.260 Y-16.560 Z-2.000 F1200
G1 X-1.380 Y-16.560 Z-2.000 F1200
G1 X-1.440 Y-16.620 Z-2.000 F1200
G1 X-1.500 Y-16.680 Z-2.000 F1200
G1 X-1.620 Y-16.680 Z-2.000 F1200
G1 X-1.740 Y-16.680 Z-2.000 F1200
G1 X-1.860 Y-16.680 Z-2.000 F1200
G1 X-1.980 Y-16.680 Z-2.000 F1200
G1 X-2.100 Y-16.680 Z-2.000 F1200
G1 X-2.220 Y-16.680 Z-2.000 F1200
G1 X-2.340 Y-16.680 Z-2.000 F1200
G1 X-2.460 Y-16.680 Z-2.000 F1200
G1 X-2.580 Y-16.680 Z-2.000 F1200
G1 X-2.700 Y-16.680 Z-2.000 F1200
G1 X-2.820 Y-16.680 Z-2.000 F1200
G1 X-2.940 Y-16.680 Z-2.000 F1200
G1 X-3.060 Y-16.680 Z-2.000 F1200
G1 X-3.180 Y-16.680 Z-2.000 F1200
G1 X-3.300 Y-16.680 Z-2.000 F1200
G1 X-3.420 Y-16.680 Z-2.000 F1200
G1 X-3.540 Y-16.680 Z-2.000 F1200
G1 X-3.660 Y-16.680 Z-2.000 F1200
G1 X-3.780 Y-16.680 Z-2.000 F1200
G1 X-3.900 Y-16.680 Z-2.000 F1200
G1 X-4.020 Y-16.680 Z-2.000 F1200
G1 X-4.140 Y-16.680 Z-2.000 F1200
G1 X-4.260 Y-16.680 Z-2.000 F1200
G1 X-4.380 Y-16.680 Z-2.000 F1200
G1 X-4.500 Y-16.680 Z-2.000 F1200
G1 X-4.620 Y-16.680 Z-2.000 F1200
G1 X-4.740 Y-16.680 Z-2.000 F1200
G1 X-4.860 Y-16.680 Z-2.000 F1200
G1 X-4.980 Y-16.680 Z-2.000 F1200
G1 X-5.100 Y-16.680 Z-2.000 F1200
G1 X-5.220 Y-16.680 Z-2.000 F1200
G1 X-5.340 Y-16.680 Z-2.000 F1200
G1 X-5.460 Y-16.680 Z-2.000 F1200
G1 X-5.580 Y-16.680 Z-2.000 F1200
G1 X-5.700 Y-16.680 Z-2.000 F1200
G1 X-5.760 Y-16.620 Z-2.000 F1200
G1 X-5.820 Y-16.560 Z-2.000 F1200
G1 X-5.880 Y-16.500 Z-2.000 F1200
G1 X-5.880 Y-16.380 Z-2.000 F1200
G1 X-5.880 Y-16.260 Z-2.000 F1200
G1 X-5.880 Y-16.140 Z-2.000 F1200
G1 X-5.880 Y-16.020 Z-2.000 F1200
G1 X-5.880 Y-15.900 Z-2.000 F1200
G1 X-5.880 Y-15.780 Z-2.000 F1200
G1 X-5.880 Y-15.660 Z-2.000 F1200
G1 X-5.880 Y-15.540 Z-2.000 F1200
G1 X-5.880 Y-15.420 Z-2.000 F1200
G1 X-5.880 Y-15.300 Z-2.000 F1200
G1 X-5.880 Y-15.180 Z-2.000 F1200
G1 X-5.880 Y-15.060 Z-2.000 F1200
G1 X-5.880 Y-14.940 Z-2.000 F1200
G1 X-5.880 Y-14.820 Z-2.000 F1200
G1 X-5.880 Y-14.700 Z-2.000 F1200
G1 X-5.880 Y-14.580 Z-2.000 F1200
G1 X-5.880 Y-14.460 Z-2.000 F1200
G1 X-5.880 Y-14.340 Z-2.000 F1200
G1 X-5.880 Y-14.220 Z-2.000 F1200
G1 X-5.880 Y-14.100 Z-2.000 F1200
G1 X-5.880 Y-13.980 Z-2.000 F1200
G1 X-5.880 Y-13.860 Z-2.000 F1200
G1 X-5.880 Y-13.740 Z-2.000 F1200
G1 X-5.880 Y-13.620 Z-2.000 F1200
G1 X-5.880 Y-13.500 Z-2.000 F1200
G1 X-5.880 Y-13.380 Z-2.000 F1200
G1 X-5.880 Y-13.260 Z-2.000 F1200
G1 X-5.880 Y-13.140 Z-2.000 F1200
G1 X-5.880 Y-13.020 Z-2.000 F1200
G1 X-5.880 Y-12.900 Z-2.000 F1200
G1 X-5.880 Y-12.780 Z-2.000 F1200
G1 X-5.880 Y-12.660 Z-2.000 F1200
G1 X-5.880 Y-12.540 Z-2.000 F1200
G1 X-5.880 Y-12.420 Z-2.000 F1200
G1 X-5.880 Y-12.300 Z-2.000 F1200
G1 X-5.880 Y-12.180 Z-2.000 F1200
G1 X-5.880 Y-12.060 Z-2.000 F1200
G1 X-5.880 Y-11.940 Z-2.000 F1200
G1 X-5.880 Y-11.820 Z-2.000 F1200
G1 X-5.880 Y-11.700 Z-2.000 F1200
G1 X-5.880 Y-11.580 Z-2.000 F1200
G1 X-5.880 Y-11.460 Z-2.000 F1200
G1 X-5.880 Y-11.340 Z-2.000 F1200
G1 X-5.880 Y-11.220 Z-2.000 F1200
G1 X-5.880 Y-11.100 Z-2.000 F1200
G1 X-5.880 Y-10.980 Z-2.000 F1200
G1 X-5.880 Y-10.860 Z-2.000 F1200
G1 X-5.880 Y-10.740 Z-2.000 F1200
G1 X-5.880 Y-10.620 Z-2.000 F1200
G1 X-5.880 Y-10.500 Z-2.000 F1200
G1 X-5.880 Y-10.380 Z-2.000 F1200
G1 X-5.880 Y-10.260 Z-2.000 F1200
G1 X-5.880 Y-10.140 Z-2.000 F1200
G1 X-5.880 Y-10.020 Z-2.000 F1200
G1 X-5.880 Y-9.900 Z-2.000 F1200
G1 X-5.880 Y-9.780 Z-2.000 F1200
G1 X-5.880 Y-9.660 Z-2.000 F1200
G1 X-5.880 Y-9.540 Z-2.000 F1200
G1 X-5.880 Y-9.420 Z-2.000 F1200
G1 X-5.880 Y-9.300 Z-2.000 F1200
G1 X-5.880 Y-9.180 Z-2.000 F1200
G1 X-5.880 Y-9.060 Z-2.000 F1200
G1 X-5.880 Y-8.940 Z-2.000 F1200
G1 X-5.880 Y-8.820 Z-2.000 F1200
G1 X-5.880 Y-8.700 Z-2.000 F1200
G1 X-5.880 Y-8.580 Z-2.000 F1200
G1 X-5.880 Y-8.460 Z-2.000 F1200
G1 X-5.880 Y-8.340 Z-2.000 F1200
G1 X-5.880 Y-8.220 Z-2.000 F1200
G1 X-5.880 Y-8.100 Z-2.000 F1200
G1 X-5.880 Y-7.980 Z-2.000 F1200
G1 X-5.880 Y-7.860 Z-2.000 F1200
G1 X-5.880 Y-7.740 Z-2.000 F1200
G1 X-5.880 Y-7.620 Z-2.000 F1200
G1 X-5.880 Y-7.500 Z-2.000 F1200
G1 X-5.880 Y-7.380 Z-2.000 F1200
G1 X-5.880 Y-7.260 Z-2.000 F1200
G1 X-5.880 Y-7.140 Z-2.000 F1200
G1 X-5.880 Y-7.020 Z-2.000 F1200
G1 X-5.880 Y-6.900 Z-2.000 F1200
G1 X-5.880 Y-6.780 Z-2.000 F1200
G1 X-5.880 Y-6.660 Z-2.000 F1200
G1 X-5.880 Y-6.540 Z-2.000 F1200
G1 X-5.880 Y-6.420 Z-2.000 F1200
G1 X-5.880 Y-6.300 Z-2.000 F1200
G1 X-5.880 Y-6.180 Z-2.000 F1200
G1 X-5.880 Y-6.060 Z-2.000 F1200
G1 X-5.880 Y-5.940 Z-2.000 F1200
G1 X-5.880 Y-5.820 Z-2.000 F1200
G1 X-5.880 Y-5.700 Z-2.000 F1200
G1 X-5.880 Y-5.580 Z-2.000 F1200
G1 X-5.880 Y-5.460 Z-2.000 F1200
G1 X-5.880 Y-5.340 Z-2.000 F1200
G1 X-5.880 Y-5.220 Z-2.000 F1200
G1 X-5.880 Y-5.100 Z-2.000 F1200
G1 X-5.880 Y-4.980 Z-2.000 F1200
G1 X-5.880 Y-4.860 Z-2.000 F1200
G1 X-5.880 Y-4.740 Z-2.000 F1200
G1 X-5.880 Y-4.620 Z-2.000 F1200
G1 X-5.880 Y-4.500 Z-2.000 F1200
G1 X-5.880 Y-4.380 Z-2.000 F1200
G1 X-5.880 Y-4.260 Z-2.000 F1200
G1 X-5.880 Y-4.140 Z-2.000 F1200
G1 X-5.880 Y-4.020 Z-2.000 F1200
G1 X-5.880 Y-3.900 Z-2.000 F1200
G1 X-5.880 Y-3.780 Z-2.000 F1200
G1 X-5.880 Y-3.660 Z-2.000 F1200
G1 X-5.880 Y-3.540 Z-2.000 F1200
G1 X-5.880 Y-3.420 Z-2.000 F1200
G1 X-5.880 Y-3.300 Z-2.000 F1200
G1 X-5.880 Y-3.180 Z-2.000 F1200
G1 X-5.880 Y-3.060 Z-2.000 F1200
G1 X-5.880 Y-2.940 Z-2.000 F1200
G1 X-5.880 Y-2.820 Z-2.000 F1200
G1 X-5.880 Y-2.700 Z-2.000 F1200
G1 X-5.880 Y-2.580 Z-2.000 F1200
G1 X-5.880 Y-2.460 Z-2.000 F1200
G1 X-5.880 Y-2.340 Z-2.000 F1200
G1 X-5.880 Y-2.220 Z-2.000 F1200
G1 X-5.880 Y-2.100 Z-2.000 F1200
G1 X-5.880 Y-1.980 Z-2.000 F1200
G1 X-5.880 Y-1.860 Z-2.000 F1200
G1 X-5.880 Y-1.740 Z-2.000 F1200
G1 X-5.880 Y-1.620 Z-2.000 F1200
G1 X-5.880 Y-1.500 Z-2.000 F1200
G1 X-5.880 Y-1.380 Z-2.000 F1200
G1 X-5.880 Y-1.260 Z-2.000 F1200
G1 X-5.880 Y-1.140 Z-2.000 F1200
G1 X-5.880 Y-1.020 Z-2.000 F1200
G1 X-5.880 Y-0.900 Z-2.000 F1200
G1 X-5.880 Y-0.780 Z-2.000 F1200
G1 X-5.880 Y-0.660 Z-2.000 F1200
G1 X-5.880 Y-0.540 Z-2.000 F1200
G1 X-5.880 Y-0.420 Z-2.000 F1200
G1 X-5.880 Y-0.300 Z-2.000 F1200
G1 X-5.880 Y-0.180 Z-2.000 F1200
G1 X-5.880 Y-0.060 Z-2.000 F1200
G1 X-5.880 Y0.060 Z-2.000 F1200
G1 X-5.880 Y0.180 Z-2.000 F1200
G1 X-5.880 Y0.300 Z-2.000 F1200
G1 X-5.880 Y0.420 Z-2.000 F1200
G1 X-5.880 Y0.540 Z-2.000 F1200
G1 X-5.880 Y0.660 Z-2.000 F1200
G1 X-5.880 Y0.780 Z-2.000 F1200
G1 X-5.880 Y0.900 Z-2.000 F1200
G1 X-5.880 Y1.020 Z-2.000 F1200
G1 X-5.880 Y1.140 Z-2.000 F1200
G1 X-5.880 Y1.260 Z-2.000 F1200
G1 X-5.880 Y1.380 Z-2.000 F1200
G1 X-5.880 Y1.500 Z-2.000 F1200
G1 X-5.880 Y1.620 Z-2.000 F1200
G1 X-5.880 Y1.740 Z-2.000 F1200
G1 X-5.880 Y1.860 Z-2.000 F1200
G1 X-5.880 Y1.980 Z-2.000 F1200
G1 X-5.880 Y2.100 Z-2.000 F1200
G1 X-5.880 Y2.220 Z-2.000 F1200
G1 X-5.880 Y2.340 Z-2.000 F1200
G1 X-5.880 Y2.460 Z-2.000 F1200
G1 X-5.880 Y2.580 Z-2.000 F1200
G1 X-5.880 Y2.700 Z-2.000 F1200
G1 X-5.880 Y2.820 Z-2.000 F1200
G1 X-5.880 Y2.940 Z-2.000 F1200
G1 X-5.880 Y3.060 Z-2.000 F1200
G1 X-5.880 Y3.180 Z-2.000 F1200
G1 X-5.880 Y3.300 Z-2.000 F1200
G1 X-5.880 Y3.420 Z-2.000 F1200
G1 X-5.880 Y3.540 Z-2.000 F1200
G1 X-5.880 Y3.660 Z-2.000 F1200
G1 X-5.880 Y3.780 Z-2.000 F1200
G1 X-5.880 Y3.900 Z-2.000 F1200
G1 X-5.880 Y4.020 Z-2.000 F1200
G1 X-5.880 Y4.140 Z-2.000 F1200
G1 X-5.880 Y4.260 Z-2.000 F1200
G1 X-5.880 Y4.380 Z-2.000 F1200
G1 X-5.880 Y4.500 Z-2.000 F1200
G1 X-5.880 Y4.620 Z-2.000 F1200
G1 X-5.880 Y4.740 Z-2.000 F1200
G1 X-5.880 Y4.860 Z-2.000 F1200
G1 X-5.880 Y4.980 Z-2.000 F1200
G1 X-5.880 Y5.100 Z-2.000 F1200
G1 X-5.880 Y5.220 Z-2.000 F1200
G1 X-5.880 Y5.340 Z-2.000 F1200
G1 X-5.880 Y5.460 Z-2.000 F1200
G1 X-5.880 Y5.580 Z-2.000 F1200
G1 X-5.880 Y5.700 Z-2.000 F1200
G1 X-5.880 Y5.820 Z-2.000 F1200
G1 X-5.880 Y5.940 Z-2.000 F1200
G1 X-5.880 Y6.060 Z-2.000 F1200
G1 X-5.880 Y6.180 Z-2.000 F1200
G1 X-5.880 Y6.300 Z-2.000 F1200
G1 X-5.880 Y6.420 Z-2.000 F1200
G1 X-5.880 Y6.540 Z-2.000 F1200
G1 X-5.880 Y6.660 Z-2.000 F1200
G1 X-5.880 Y6.780 Z-2.000 F1200
G1 X-5.880 Y6.900 Z-2.000 F1200
G1 X-5.880 Y7.020 Z-2.000 F1200
G1 X-5.880 Y7.140 Z-2.000 F1200
G1 X-5.880 Y7.260 Z-2.000 F1200
G1 X-5.880 Y7.380 Z-2.000 F1200
G1 X-5.880 Y7.500 Z-2.000 F1200
G1 X-5.880 Y7.620 Z-2.000 F1200
G1 X-5.880 Y7.740 Z-2.000 F1200
G1 X-5.880 Y7.860 Z-2.000 F1200
G1 X-5.880 Y7.980 Z-2.000 F1200
G1 X-5.880 Y8.100 Z-2.000 F1200
G1 X-5.880 Y8.220 Z-2.000 F1200
G1 X-5.880 Y8.340 Z-2.000 F1200
G1 X-5.880 Y8.460 Z-2.000 F1200
G1 X-5.880 Y8.580 Z-2.000 F1200
G1 X-5.880 Y8.700 Z-2.000 F1200
G1 X-5.880 Y8.820 Z-2.000 F1200
G1 X-5.880 Y8.940 Z-2.000 F1200
G1 X-5.880 Y9.060 Z-2.000 F1200
G1 X-5.880 Y9.180 Z-2.000 F1200
G1 X-5.880 Y9.300 Z-2.000 F1200
G1 X-5.880 Y9.420 Z-2.000 F1200
G1 X-5.880 Y9.540 Z-2.000 F1200
G1 X-5.880 Y9.660 Z-2.000 F1200
G1 X-5.880 Y9.780 Z-2.000 F1200
G1 X-5.880 Y9.900 Z-2.000 F1200
G1 X-5.880 Y10.020 Z-2.000 F1200
G1 X-5.880 Y10.140 Z-2.000 F1200
G1 X-5.880 Y10.260 Z-2.000 F1200
G1 X-5.880 Y10.380 Z-2.000 F1200
G1 X-5.880 Y10.500 Z-2.000 F1200
G1 X-5.880 Y10.620 Z-2.000 F1200
G1 X-5.880 Y10.740 Z-2.000 F1200
G1 X-5.880 Y10.860 Z-2.000 F1200
G1 X-5.880 Y10.980 Z-2.000 F1200
G1 X-5.880 Y11.100 Z-2.000 F1200
G1 X-5.880 Y11.220 Z-2.000 F1200
G1 X-5.880 Y11.340 Z-2.000 F1200
G1 X-5.880 Y11.460 Z-2.000 F1200
G1 X-5.880 Y11.580 Z-2.000 F1200
G1 X-5.880 Y11.700 Z-2.000 F1200
G1 X-5.880 Y11.820 Z-2.000 F1200
G1 X-5.880 Y11.940 Z-2.000 F1200
G1 X-5.880 Y12.060 Z-2.000 F1200
G1 X-5.880 Y12.180 Z-2.000 F1200
G1 X-5.880 Y12.300 Z-2.000 F1200
G1 X-5.880 Y12.420 Z-2.000 F1200
G1 X-5.880 Y12.540 Z-2.000 F1200
G1 X-5.880 Y12.660 Z-2.000 F1200
G1 X-5.880 Y12.780 Z-2.000 F1200
G1 X-5.880 Y12.900 Z-2.000 F1200
G1 X-5.880 Y13.020 Z-2.000 F1200
G1 X-5.880 Y13.140 Z-2.000 F1200
G1 X-5.880 Y13.260 Z-2.000 F1200
G1 X-5.880 Y13.380 Z-2.000 F1200
G1 X-5.880 Y13.500 Z-2.000 F1200
G1 X-5.880 Y13.620 Z-2.000 F1200
G1 X-5.880 Y13.740 Z-2.000 F1200
G1 X-5.880 Y13.860 Z-2.000 F1200
G1 X-5.880 Y13.980 Z-2.000 F1200
G1 X-5.880 Y14.100 Z-2.000 F1200
G1 X-5.880 Y14.220 Z-2.000 F1200
G1 X-5.880 Y14.340 Z-2.000 F1200
G1 X-5.880 Y14.460 Z-2.000 F1200
G1 X-5.880 Y14.580 Z-2.000 F1200
G1 X-5.880 Y14.700 Z-2.000 F1200
G1 X-5.880 Y14.820 Z-2.000 F1200
G1 X-5.880 Y14.940 Z-2.000 F1200
G1 X-5.880 Y15.060 Z-2.000 F1200
G1 X-5.880 Y15.180 Z-2.000 F1200
G1 X-5.880 Y15.300 Z-2.000 F1200
G1 X-5.880 Y15.420 Z-2.000 F1200
G1 X-5.880 Y15.540 Z-2.000 F1200
G1 X-5.880 Y15.660 Z-2.000 F1200
G1 X-5.880 Y15.780 Z-2.000 F1200
G1 X-5.880 Y15.900 Z-2.000 F1200
G1 X-5.880 Y16.020 Z-2.000 F1200
G1 X-5.880 Y16.140 Z-2.000 F1200
G1 X-5.880 Y16.260 Z-2.000 F1200
G1 X-5.880 Y16.380 Z-2.000 F1200
G1 X-5.880 Y16.500 Z-2.000 F1200
G1 X-5.880 Y16.620 Z-2.000 F1200
G1 X-5.820 Y16.680 Z-2.000 F1200
G1 X-5.760 Y16.740 Z-2.000 F1200
G0 Z2.000
M5
G0 X0.000 Y0.000
M2
